id,brought,name,address,latitude,longitude,contact_number,detail,image_address
r1,강서구,만드리곤드레밥,강서구 공항앞길 85번길 13,35.177387,128.95245,051-941-3669,"곤드레밥에는 일반적으로 건조 곤드레나물이 사용되는데,이곳은 생 곤드레나물을 사용하여 돌솥밥을 만든다.된장찌개와 함께 열 가지가 넘는 반찬이 제공되는 돌솥곤드레정식이 인기있다",C:/Users/KDT02/Desktop/new_team_project_1/image/restaurant_data_image/만드리곤드레밥.png
r2,강서구,만호갈미샤브샤브,강서구 르노삼성대로 602,35.101425,128.92914,051-271-4389,"샤브샤브, 수육, 구이 등 다양한 방식으로 갈미조개를 요리하는 갈미조개 전문 식당. 국물이 맛있기로 유명한 이곳은 갈미샤브샤브와 갈미수육이 대표메뉴이다.",C:/Users/KDT02/Desktop/new_team_project_1/image/restaurant_data_image/만호갈미샤브샤브.png
r3,강서구,민물가든,강서구 둔치중앙길5(봉림동),35.16055,128.89468,051-971-8428,"30년간 운영해온 생선찜전문점으로, 전통방식인 나무통을 사용하여 조리하는 것이 특징이다. 20가지 이상의 재료로 만든 양념을 사용하는 이 곳은 묵은지 붕어조림과 붕어찜이 대표메뉴이다.",C:/Users/KDT02/Desktop/new_team_project_1/image/restaurant_data_image/민물가든.png
r4,영도구,부흥식당,영도구 절영로 104,35.085815,129.04071,051-417-0227,영도의 유명한 제주 자리돔전문점으로 싱싱한 자리돔과 직접 만든 양념장의 맛이 무척 잘 어울린다.당일 판매 할 수 있는 한정된 양만 판매하고 있는 이곳은 제주갈치 요리로도 유명하다.,C:/Users/KDT02/Desktop/new_team_project_1/image/restaurant_data_image/부흥식당.png
r5,부산진구,사미헌,부산진구 서면문화로 19,35.159008,129.05666,051-819-6677,유명한 한우전문점으로 국내 외 유명정상들이 방문했던 곳이기도 한 이 곳은숙련된 한우 명장이 꼼꼼하고 정직하게 준비한 수준 높은 한우를 만날 수 있다 .개별 룸이 잘 갖춰져 있어 각종 연회나 행사로도 많이 찾는 곳이다.,C:/Users/KDT02/Desktop/new_team_project_1/image/restaurant_data_image/사미헌.png
r6,부산진구,원조할매집,부산진구 골드테마길 10,35.142147,129.06017,051-643-5037,1968년부터 운영 중인 이곳을 소개하는 것은 딱 한마디면 충분하다.부산의 향토음식인 ‘조방낙지’가 시작된 곳. 더 이상 무슨 설명이 필요 하겠는가,C:/Users/KDT02/Desktop/new_team_project_1/image/restaurant_data_image/원조할매집.png
r7,연제구,가야할매밀면,부산 연제구 월드컵대로 145번길 32,35.185196,129.07988,051-865-8017,"유명한 밀면전문점으로, 밀가루에 옥수수 전분을 섞어, 다른 밀면전문점들보다 더 탄력있는 면이 특징이다. 육수는 돼지뼈와 소뼈에 각종 야채와 여러 한약재를 섞어 만들고, 사이드 메뉴인 만두도 인기 있다.",C:/Users/KDT02/Desktop/new_team_project_1/image/restaurant_data_image/가야할매밀면.png
r8,연제구,국제밀면본점,연제구 중앙대로1235번길 23-6,35.19689,129.07785,051-501-5507,"밀면전문점 중에서도 특히 맛으로 소문난 이곳은소 사골만을 사용한 육수 등 독창적인 방식의 밀면을 만들고 있다. 보통 기계로 잘려진 편육이 고명으로 올려지는데, 이곳은 손으로 일일이 얇게 찢은 양지머리 고기가 올려지는 것이 특징이다.",C:/Users/KDT02/Desktop/new_team_project_1/image/restaurant_data_image/국제밀면본점.png
r9,중구,가야밀면,중구 광복로 56-14,35.098934,129.03122,051-246-3314,"깔끔한 맛의 육수가 인상적인 40년 전통의 밀면 전문점으로, 식사시간에는 항상 긴 줄이 늘어서 있지만 140석을 갖춘 넓은 매장으로 인해 웨이팅 시간은 짧은 편. 항상 청결하게 관리되고 있는 기분 좋은 식당이다.",C:/Users/KDT02/Desktop/new_team_project_1/image/restaurant_data_image/가야밀면.png
r10,중구,김해식당,중구 자갈치로 51-2,35.09748,129.02994,051-255-8242,TV프로그램에도 자주 소개되는 유명한 아귀요리전문점으로1980년부터 생 아귀를 이용한 음식들을 만들고 있다.푸짐하고 신선한 아귀와 아귀 특수부위를 함께 먹을 수 있으며 외국인들도 즐겨 찾는 식당이다.,C:/Users/KDT02/Desktop/new_team_project_1/image/restaurant_data_image/김해식당.png
r11,중구,물꽁식당,중구 흑교로59번길 3,35.104504,129.0244,051-257-3230,"60년째 3대를 이어 운영해온 전통 있는 아귀요리전문점으로 신선한 아귀를 사용해 아구찜, 수육, 탕을 만든다. 자극적이지 않은 담백한 맛의 아구찜이 대표메뉴로 오래되었지만 청결한 가게가 인상적이다",C:/Users/KDT02/Desktop/new_team_project_1/image/restaurant_data_image/물꽁식당.png
r12,중구,부산명물횟집,중구 자갈치해안로 55,35.09714,129.0312,051-245-7617,1946년부터 운영해 온 무척 유명한 횟집으로 여러 유명인사들의 단골집이기도 하다.광어회 한 접시에 고기뼈를 푹 고아서 만든 진하고 담백한 맑은 국과 여섯 가지 밑반찬이 나오는 회정식이 인기메뉴이다,C:/Users/KDT02/Desktop/new_team_project_1/image/restaurant_data_image/부산명물횟집.png
r13,중구,원조한양족발,부산 중구 광복로 13,35.099903,129.02715,051-246-3039,"35년 간 국내산 돼지 족을 사용하여 족발을 만들고 있는 유명한 족발전문점으로, 하루 2번 매장에서 삶은 신선하고 싱싱한 족발 맛으로 유명하다. 고기를 얇게 썰어 맛과 식감을 살린 족발과 냉채 족발이 대표메뉴",C:/Users/KDT02/Desktop/new_team_project_1/image/restaurant_data_image/원조한양족발.png
r14,중구,이재모피자,중구 광복중앙로 31,35.102104,129.0306,051-245-1478,"30여년을 운영 중인 피자전문점으로 부산에서 피자가 대중화된 시기를 생각하면 상당한 전통을 자랑하는 유명한 곳이다. 국내산 임실치즈를 사용한 푸짐한 토핑의 피자가 특징이며, 변함없는 맛을 지키고 있다.",C:/Users/KDT02/Desktop/new_team_project_1/image/restaurant_data_image/이재모피자.png
r15,금정구,모모스커피,금정구 오시게로 20(부곡동),35.21928,129.08643,051-512-7034,"2019월드 바리스타 챔피언십(WBC) 우승자가 있는 이 곳은카페의 도시 부산에서도 가장 유명한 카페 중 하나인 모모스커피 .고급 원두를 직접 로스팅하여 커피를 준비하며, 커피에 대한 애정이 가득한 공간이다",C:/Users/KDT02/Desktop/new_team_project_1/image/restaurant_data_image/모모스커피.png
r16,금정구,배비장보쌈,금정구 금정로 239,35.245174,129.09143,051-515-2106,"30여 년 운영해 온 부산에서 유명한 보쌈 식당 중 하나로, 보쌈김치와 무채를 매일 직접 담근다.반찬으로 나오는 계란찜도 인기 있는 이곳은 손님을 대접하기에도 좋은 장소다.",C:/Users/KDT02/Desktop/new_team_project_1/image/restaurant_data_image/배비장보쌈.png
r17,북구,장수장꼬리곰탕,북구 사상로 581,35.19576,128.99043,051-303-7096,"1983년에 개업하여 40여 년을 운영해온 곳으로, 김치와 젓갈은 직접 만들어 항아리에서 숙성시킨다.뼈와 도가니는 한우, 꼬리는 호주산으로 엄선된 재료를 사용하며 변하지 않는 꾸준한 맛으로인기 높은 곳이다.",C:/Users/KDT02/Desktop/new_team_project_1/image/restaurant_data_image/장수장꼬리곰탕.png
r18,해운대구,거대갈비,해운대구 달맞이길 22,35.161617,129.16696,051-746-0037,"최상등급의 고기와 최고의 원재료만을 사용한다는 한우숯불구이전문점으로,깔끔한 실내와 친절한 점원들이 인상적이다. 최상등급의 한우인만큼 가격도 높은 편이지만,직원이 고기를 구워주는 등 만족도가 높은 식당이다",C:/Users/KDT02/Desktop/new_team_project_1/image/restaurant_data_image/거대갈비.png
r19,해운대구,금수복국 본점,해운대구 중동1로 43번길23,35.16243,129.1645,051-742-3600,"부산에서 가장 유명한 식당 중 한 곳인 46년 전통의 복어요리전문점으로, 우수한 식재를 현지에서 엄선하여 공수하고, 모든 찬류 및 장류와 김치, 양념 등을 직접 만들어 사용한다. 특히 외국인 관광객들이 많이 찾는 곳으로도 유명하다.",C:/Users/KDT02/Desktop/new_team_project_1/image/restaurant_data_image/금수복국 본점.png
r20,해운대구,다온,부산 해운대구 해운대해변로 154,35.158123,129.14853,051-959-0119,"한옥의 전통적인 모티브를 활용한 인테리어가 인상적인 한정식전문점으로, 토속적인 소품 으로 장식된 별실이 마련되어 있어 격식 있는 모임의 장소로도 많이 찾는 곳. 한약재와 제철 음식 재료를 활용해서 만든 한식 요리를 곱게 담아 코스로 내는 한정식이 인기",C:/Users/KDT02/Desktop/new_team_project_1/image/restaurant_data_image/다온.png
r21,해운대구,동백섬횟집,해운대구 해운대해변로209번나길 17,35.160427,129.15468,051-741-3888,"해운대 그랜드호텔 인근에 있는 자연산 활어회 전문 횟집으로,생선회를 주문하면 문어숙회, 멍게, 전복, 가자미구이, 새우튀김 등의 다양한 밑반찬과식사 후 매운탕 등의 요리가 함께 제공된다. 대부분의 생선은 시가에 따라서 가격이 변동된다",C:/Users/KDT02/Desktop/new_team_project_1/image/restaurant_data_image/동백섬횟집.png
r22,해운대구,르꽁비브,해운대구 센텀북대로 60 센텀아이에스타워 110호,35.176777,129.12552,051-783-3693,부산의 유명베이커리인 옵스에서 런칭한 전통 프렌치 레스토랑. 프랑스인들에게 프렌치 퀴진을 가르쳐온 셰프의 전통 현지 요리법으로 사계절 제철 식재료를 사용한 다양한 프렌치코스요리를 선보이고 있다.,C:/Users/KDT02/Desktop/new_team_project_1/image/restaurant_data_image/르꽁비브.png
r23,사상구,파니니브런치,사상구 엄궁남로 15,35.12544,128.96982,0507-1332-2292,"주택을 개조하여 만든 예쁜 외관의 브런치카페로, 휴일과 잘 어울릴 것 같은 화사한 실내와창 너머에 보이는 화단이 인상적이다. 아메리칸 브런치, 불고기파니니, 맥앤치즈파니니, 부리또 브런치, 리코타샐러드 등이 인기 있는 메뉴이다.",C:/Users/KDT02/Desktop/new_team_project_1/image/restaurant_data_image/파니니브런치.png
r24,해운대구,문스시,부산 해운대구 좌동순환로 43,35.17031,129.16615,051-744-3316,"TV프로그램을 통해 소개된 유명 쉐프가 운영하는 일식전문점으로, 기대를 충족하는 수준 있는 요리들과 깔끔하고 세련된 인테리어가 특징이다. 쉐프가 추천하는 음식으로 구성되는 오마카세 스시 코스가 특히 유명하다.",C:/Users/KDT02/Desktop/new_team_project_1/image/restaurant_data_image/문스시.png
r25,사상구,할매재첩국,사상구 낙동대로1530번길 20-15,35.193363,128.98607,051-301-7069,"낙동강변 재첩요리 먹거리 타운에서 30여 년을 운영하고 있는 재첩국전문점으로, 비빔그릇에 함께 나온 된장과 재첩을 넣고 비빔밥을 만들어 재첩국과 함께 먹는 방법이 인기 있다.",C:/Users/KDT02/Desktop/new_team_project_1/image/restaurant_data_image/할매재첩국.png
r26,해운대구,예이제,부산 해운대구 해운대해변로298번길 29 해운대푸르지오시티 2층,35.16123,129.16664,051-731-1100,"해운대 해변인근에 위치한 한정식전문점으로, 가족모임이나 손님 대접 등으로 많이 찾는 곳이다. 주인이 직접 고른 제철 식재료와 지인이 운영하는 농장에서 키운 채소를 사용하는이 곳은 먹는 것이 고민스러울 정도로 예쁜 음식이 특징이다.",C:/Users/KDT02/Desktop/new_team_project_1/image/restaurant_data_image/예이제.png
r27,사상구,합천일류돼지국밥,사상구 광장로 34,35.16191,128.98045,051-317-2478,"맛있는 식당들이 많기로 유명한 사상시외버스터미널 근처에서도 특히 유명한 돼지국밥 전문점으로, 24시간 운영되는 이곳은, 관광객들이 많이 찾는 곳이기도 하다. 마늘다대기가 수북하게 올려져 있는 것이 특징이며, 국밥만큼이나 돼지고기 수육도 유명하다.",C:/Users/KDT02/Desktop/new_team_project_1/image/restaurant_data_image/합천일류돼지국밥.png
r28,해운대구,원조석대추어탕,부산 해운대구 반송로 571번길 5,35.2195,129.12512,051-523-7819,"입구를 들어서면 가득 쌓인 장작과 아궁이에 올려 진 커다란 무쇠솥이 눈에 들어온다.유명한 추어탕전문점인 이 곳의 추어탕은, 강한 화력으로 오래 끓여 부드럽고 풍부한 맛이 특징으로, 논고동무침과 가오리찜도 인기 있다.",C:/Users/KDT02/Desktop/new_team_project_1/image/restaurant_data_image/원조석대추어탕.png
r29,기장군,웨이브온커피,기장군 장안읍 해맞이로 286,35.32225,129.26979,051-727-1660,바다와 카페라는 테마를 이야기할 때 항상 거론되는 로스토리 카페로 전문 큐그레이더가직접 가져온 스페셜티 커피를 이용한 드립 커피 등 커피 베리에이션 메뉴가 전문이다 .야외에 해변을 바라볼 수 있는 자리와 담요가 구비되어 있다.,C:/Users/KDT02/Desktop/new_team_project_1/image/restaurant_data_image/웨이브온커피.png
r30,사하구,대티물꽁,사하구 낙동대로 135번안길15,35.10239,129.00041,051-203-4425,주택을 개조한 포근한 공간은 중·장년층의 향수를 자극할만한 소품들로 인테리어 되어 있다.비교적 저렴한 가격으로 푸짐한 음식들을 만날 수 있어 이 지역의 주민들에게 오랜 시간 사랑받아온 아귀찜전문점이다,C:/Users/KDT02/Desktop/new_team_project_1/image/restaurant_data_image/대티물꽁.png
r31,서구,원조 18번 완당,서구 구덕로 238번길 6,35.105713,129.02045,051-256-3391,1947년부터 3대를 이어 운영 중인 유명한 식당으로 1대 창업주가 일본에서 배워온 완당을 한국인의 입맛에 맞게 발전시켰다.부산 음식문화의 한 부분을 장식한 유서 깊은 식당이다.,C:/Users/KDT02/Desktop/new_team_project_1/image/restaurant_data_image/원조 18번 완당.png
r32,해운대구,원조할매복국,달맞이길62번길 1,35.160915,129.17152,051-742-2790,"‘복국촌’으로 알려진 미포 지역의 대표적인 복요리 전문점으로, 부산 향토 음식점 31곳 중하나이다. 복어를 사용한 맑은 탕인 복지리가 대표메뉴이며, 복어죽과 수육, 복불고기와 복어찜 등의 요리도 맛볼 수 있다.",C:/Users/KDT02/Desktop/new_team_project_1/image/restaurant_data_image/원조할매복국.png
r33,해운대구,젠스시,해운대구 대천로42번길28-5,35.170803,129.17145,051-746-7456,"해운대의 유명 일식전문점으로, 명인 인증서를 받은 오너 쉐프가 운영하며, 주방 분위기가 엄격하고, 위생에 무척 신경을 쓰는 것으로도 유명하다. 열 가지의 초밥과 함께 미소시루, 달걀 찜, 튀김 등으로 구성 된 코스요리가 대표메뉴",C:/Users/KDT02/Desktop/new_team_project_1/image/restaurant_data_image/젠스시.png
r34,서구,신창국밥,서구 보수대로 53,35.10093,129.02254,051-244-1112,"1969년에 국제시장 신창동에서 시작하여 신창국밥이라 이름 지어진 식당으로,맑은 국물의 돼지국밥이 시작된 곳이다.신선한 재료와 전통방식인 토렴을 고수하고, 직접 만드는 이북식 순대도 인기 있다.",C:/Users/KDT02/Desktop/new_team_project_1/image/restaurant_data_image/신창국밥.png
r35,서구,옛날 오막집,서구 구덕로274번길 14,35.108913,129.0199,051-243-6973,1958년부터 운영하고 있는 유명한 내장구이전문점으로 오랜 세월 사랑받고 있는 곳이다 .이곳의 내장구이는 전통만큼이나 각별한 맛을 자랑하는데 함께 제공되는장아찌와 나물들을 곁들여 먹으면 또 다른 맛을 즐길 수 있다.,C:/Users/KDT02/Desktop/new_team_project_1/image/restaurant_data_image/옛날 오막집.png
r36,해운대구,평안도족발,부산 해운대구 달맞이길 14,35.161945,129.16637,051-741-6568,"30년 넘게 한자리에서 운영해온 전통 있는 족발전문점으로, 이 지역 사람들에게 오래 사랑 받아온 곳이다. 오래된 식당답게 족발 특유의 냄새가 없는 깔끔하고 균형 잡힌 족발의 맛이 특징이며, 냉채족발과 마늘족발 등의 메뉴도 인기 있다.",C:/Users/KDT02/Desktop/new_team_project_1/image/restaurant_data_image/평안도족발.png
r37,해운대구,한우숯불양곱창,부산 해운대구 해운대해변로 385,35.165897,129.17079,051-741-8969,"해운대 중동역 인근의 양곱창 전문점인 이 곳은 특히 소의 첫 번째 위인 특양 양념구이가 유명하다. 주문과 동시에 특제양념을 발라, 점원이 구워주는 이 곳의 특양 구이는 무척 부드 러우면서도 살짝 탄력 있는 식감이 특징이다.",C:/Users/KDT02/Desktop/new_team_project_1/image/restaurant_data_image/한우숯불양곱창.png
r38,남구,쌍둥이돼지국밥,남구 유엔평화로 35-1,35.13177,129.0923,051-628-7021,"식사시간에는 길게 줄을 선 모습을 볼 수 있는 유명한 식당으로,부산의 수많은 돼지국밥전문점 중에서도 손에 꼽히는 식당 중 한 곳이다.항정살 수육으로 유명하다.",C:/Users/KDT02/Desktop/new_team_project_1/image/restaurant_data_image/쌍둥이돼지국밥.png
r39,수영구,국이네낙지볶음,수영구 연수로 410,35.168022,129.11382,051-754-7776,"푸짐한 재료와 자극적이지 않은 맛으로 인기 있는 낙지볶음전문점으로부산의 쟁쟁한 낙지볶음전문점들 사이에서 신흥강자로 떠오른 곳이다.반찬들은 모두 셀프리필이 가능하고, 직원들이 항상 친절한 것으로도 유명하다",C:/Users/KDT02/Desktop/new_team_project_1/image/restaurant_data_image/국이네낙지볶음.png
r40,수영구,베지나랑,수영구 광안해변로370번길 9-32 노블스카이 9층,35.156757,129.13426,0507-1416-5561,"매일 준비하는 깨끗한 채수로 맛을 내고 간단한 샐러드부터 일품요리, 코스요리까지 다양하게 준비하는 비건 식당이다.비건 식당 특성 상 외국인 손님들이 많이 찾는다고 한다.",C:/Users/KDT02/Desktop/new_team_project_1/image/restaurant_data_image/베지나랑.png
r41,수영구,신라횟집,수영구 민락수변로7번길 16,35.155254,129.12456,051-753-2800,다양한 종류의 물회가 준비되어 있는 물회전문 횟집으로10가지 이상의 재료를 혼합·숙성시킨 소스와 황칠나무를 다린 물 등으로 만든 육수를 사용한다.차갑게 얼린 맥반석을 접시로 사용해 회를 제공하는 것도 특징이다,C:/Users/KDT02/Desktop/new_team_project_1/image/restaurant_data_image/신라횟집.png
r42,남구,이층집 564-9,"남구 유엔로217, 2층(대연동)",35.13028,129.10002,051-612-5649,"심플하고 모던한 인테리어가 인상적인 경양식전문식당으로, 등심 돈가스는 고소한 브로콜리 크림스프와 신선한 생 등심 돼지고기 커틀렛과 계절 샐러드가 함께 나온다. 바삭한 돈가스와 특제소스의 밸런스가 훌륭하다.",C:/Users/KDT02/Desktop/new_team_project_1/image/restaurant_data_image/이층집 564-9.png
r43,남구,초원복국,남구 황령대로492번길 30,35.137794,129.10591,051-628-3935,"무척 유명한 복어요리 전문점인 이곳은 50년 경력의 일식요리사인 아버지와부산 최초의 특수조리사 복어자격증 소지자인 아들이 2대째 경영하고 있는 곳으로,언제나 많은 손님들로 북적이는 곳이다. 최상급의 복어요리를 만날 수 있는 곳이다",C:/Users/KDT02/Desktop/new_team_project_1/image/restaurant_data_image/초원복국.png
r44,동구,석화한정식,조방로 21,35.13881,129.06189,051-632-5005,"차려지는 음식 하나하나가 먹기 아까울 정도로 섬세하게 담겨져 나온다. 격식있는 모임의 장소로도 유명한 고급한정식전문점으로, 버섯탕수와 전복초가 나오는 고향한정식과 관자숙 회와 갈비찜 장어구이가 나오는 어머니한정식이 대표메뉴.",C:/Users/KDT02/Desktop/new_team_project_1/image/restaurant_data_image/석화한정식.png
r45,동구,카페초량 1941,동구 망양로 533-5,35.11969,129.02942,051-462-7774,"동구의 관광명소인 ‘이바구길’에 위치한 이 카페는 1941년 당시 부산에 살던 일본인에 의해 지어진 집을 개조한 곳으로, 주변 환경을 포함해 외관도 실내도 모두 1941년을 연상시 키는 레트로한 감성을 가지고 있다. 메인메뉴는 자체개발한 예쁜 병에 담겨있는 다양한 ‘우 유’이다.",C:/Users/KDT02/Desktop/new_team_project_1/image/restaurant_data_image/카페초량 1941.png
r46,동구,60년 전통 할매국밥,동구 중앙대로533번길 4,35.141018,129.05618,051-646-6295,"60년 전통의 돼지국밥 전문점으로 식사 시간에는 30분 이상을 기다려야 하는 유명한 식당이다. 대부분의 돼지국밥들과는 다른 맑은 국물이 특징이며, 대충 썬 것 같은 돼지 수육은 예상외로 부드러운 맛이다. 돼지국물과 고기가 따로 나오는 수육백반이 특히 인기 있다.",C:/Users/KDT02/Desktop/new_team_project_1/image/restaurant_data_image/60년 전통 할매국밥.png
r47,동래구,함경면옥,충렬대로 213,35.20263,129.08307,051-556-2020,"30년 장인의 솜씨로 만든 냉면의 맛은 비교할만한 대상이 드물다. 부산에서 가장 유명한 냉면전문점 중 한 곳으로, 계절을 가리지 않고 항상 많은 사람들이 찾아오는 것이 이곳의 변하지 않는 맛을 증명하고 있다",C:/Users/KDT02/Desktop/new_team_project_1/image/restaurant_data_image/함경면옥.png
r48,남구,김유순대구뽈찜,남구 진남로15,35.136368,129.09152,051-627-4319,"충무식당이란 이름으로도 많이 기억하고 있는 대구뽈찜전문점으로양파가 가득 들어간 빨간 양념이 특징이다. 콩나물과 빨간 양념이 수북하게 쌓여있는독특한 모습의 대구뽈찜은 막걸리와도 잘 어울리고, 감자면 사리를 추가해서 먹으면 완벽하다.",C:/Users/KDT02/Desktop/new_team_project_1/image/restaurant_data_image/김유순대구뽈찜.png
r49,동구,백산키친,동구 조방로14 동일타워 225호,35.13873,129.06345,051-635-8219,"계절재료를 사용해 사시미, 구이, 탕 등 다양한 요리를 만들어내는 일식주점으로술을 즐기려 찾았다가 배부르게 식사하게 된다는 무서운 곳이다.숙련된 쉐프가 정성껏 준비하는 친절하고 기분 좋은 곳이다.",C:/Users/KDT02/Desktop/new_team_project_1/image/restaurant_data_image/백산키친.png
r50,영도구,왔다식당,영도구 하나길 811,35.094036,129.05635,051-412-2676,"일본인 손님들도 자주 찾는 이곳은 30여 년간 운영해온 한우스지요리 전문점으로, 부드러운 식감의 스지는 반드시 한우만 사용한다고 한다.대표메뉴인 된장전골을 먹을 때는 반드시 라면사리를 추가하는 것을 추천한다.",C:/Users/KDT02/Desktop/new_team_project_1/image/restaurant_data_image/왔다식당.png
r51,해운대구,영변횟집,부산 해운대구 송정해변로 30,35.1808,129.20293,051-703-7590,"뼈와 함께 먹는 잘게 썬 세꼬시가 특히 유명한 생선회전문점으로, 도다리, 광어, 우럭, 돌돔, 농어 등 다양한 활어를 철에 따라 즐길 수 있다. 특히 가자미나 광어를 이용한 세꼬시가 인기 메뉴로 회를 주문하면 상을 꽉 채우는 반찬과 해산물 등이 함께 제공된다.",C:/Users/KDT02/Desktop/new_team_project_1/image/restaurant_data_image/영변횟집.png
r52,강서구,방코,"강서구 새진목길 51, 1,2층",35.11546,128.92226,051-271-2068,특이한 외관의 이 건물은 화덕에 구운 피자와 파스타를 만드는 곳이다.신선한 재료와 새로운 조리법을 사용하여 풍부하고 담백한 맛을 내는 것이 특징이다.트러플로 향을 낸 피자와 블루치즈를 사용한 피자가 대표메뉴이다.,C:/Users/KDT02/Desktop/new_team_project_1/image/restaurant_data_image/방코.png
r53,기장군,얼크니손칼국수(기장본점),부산 기장군 기장읍 차성로 417번길 22,35.255756,129.21614,051-721-3487,"간단히 준비된 샤브샤브를 먹은 후 직접 면을 넣고 조리해 먹는 칼국수 가격에 비해 푸짐한 재료들이 특징이다. 먼저 샤브샤브를 먹고 그 국물에 칼국수를 만들어 먹고 나면, 점원이 볶음밥을 만들어 준다.",C:/Users/KDT02/Desktop/new_team_project_1/image/restaurant_data_image/얼크니손칼국수(기장본점).png
r54,남구,곤국,부산 남구 황령대로74번길 51-1,35.1477,129.06758,010-2608-6586,"곰탕전문식당인 이 곳은 오래 끓여 부드러운 고기와 맛이 진한 국물이 특징으로, 밥을 말아서 나오지 않고, 갓 지은 솥밥이 따로 제공된다.",C:/Users/KDT02/Desktop/new_team_project_1/image/restaurant_data_image/곤국.png
r55,남구,다이닝센 부산본점,부산 남구 용호로 88,35.124435,129.11235,051-621-8833,"패밀리레스토랑 다이닝센은 직접 만드는 소스들을 사용하고, 비교적 저렴한 가격에 비해 높은 수준의 음식들이 제공된다. 행사를 위한 시설과 공간도 잘 준비되어 있다.",C:/Users/KDT02/Desktop/new_team_project_1/image/restaurant_data_image/다이닝센 부산본점.png
r56,남구,오륙도 가원,남구 백운포로 14,35.106773,129.11171,051-635-0707,"건축상을 받은 아름다운 외관과 잘 가꾸어진 넓은 잔디정원이 인상적이다.이곳은 유명한 한우숯불구이 전문식당으로, 제공되는 음식과 서비스 등모든 것이 무척 고급스럽다",C:/Users/KDT02/Desktop/new_team_project_1/image/restaurant_data_image/오륙도 가원.png
r57,남구,한우랑,부산 남구 유엔로 171,35.130306,129.0949,051-621-0334,"한우 숯불구이 전문점으로 모든 메뉴는 국내에서 생산된 질 좋은 재료만 사용해 만들어진다. 한우는 특히 굽는 솜씨에 따라 맛의 차이가 크게 나는데, 이 곳은 숙련된 점원이 고기를 구워준다.",C:/Users/KDT02/Desktop/new_team_project_1/image/restaurant_data_image/한우랑.png
r58,남구,해남식당,남구 분포로 145(용호동 W스퀘어),35.134193,129.11122,051-628-2015,"김치요리전문식당인 이 곳은 배추산지로 유명한 해남의 배추를 사용 하여, 오랜 시간 숙성시킨 묵은지를 사용하는 것이 특징이며, 다양한 김치요리를 먹을 수 있다. 해남묵은지에 대한 높은 자부심을 가지고 있다.",C:/Users/KDT02/Desktop/new_team_project_1/image/restaurant_data_image/해남식당.png
r59,동구,범일빈대떡,동구 중앙대로 519,35.139576,129.05621,051-646-0081,"‘백종원의 3대천왕’이라는 유명 요리 버라이어티쇼에 출연했던 곳으로,지금은 흔치 않은 빈대떡 전문점이다. 오래된 감성을 가지고 있는 이곳의 대표메뉴 빈대떡은 100% 녹두를 사용해서 만들며, 담백하면서도 고소한 매력적인 맛이다.",C:/Users/KDT02/Desktop/new_team_project_1/image/restaurant_data_image/범일빈대떡.png
r60,동래구,금강만두,부산 동래구 사직북로5번길 11,35.196102,129.06027,051-502-8784,미식가들만 찾아가던 숨은 가게였지만현재 사람들이 쉽게 찾을 수 있는 큰 매장으로 옮겨 운영하고 있다.만두 뿐 아니라 깔끔한 맛의 육개장이 더 유명한 맛집이다.,C:/Users/KDT02/Desktop/new_team_project_1/image/restaurant_data_image/금강만두.png
r61,영도구,고을산채,부산 영도구 대교로 2번길 7,35.093414,129.0448,051-417-4477,"2006년부터 운영해온 한식당으로, 모든 반찬들을 주인이 직접 만든다. 점심에는 제철반찬이 함께 제공되는 산채정식 비빔밥을 먹으러 오는 사람이 많으며, 저녁에는 소고기버섯전골과 곱창전골이 인기 있다. 저렴한 가격에 푸짐한 식사를 할 수 있는 곳",C:/Users/KDT02/Desktop/new_team_project_1/image/restaurant_data_image/고을산채.png
r62,영도구,석화정,영도구 동삼로 42번길 16-11,35.07709,129.07228,070-8913-9989,"20여 년을 운영해 온 굴요리 전문점으로, 제철 생굴, 굴구이, 굴튀김, 굴파전, 굴김치 등 굴을 이용한 다양한 음식들을 즐길 수 있다. 특히 대표메뉴인 굴국밥은 신선한 자연산 굴을 사용하여, 깔끔하고 풍부한 맛으로 인기 있다",C:/Users/KDT02/Desktop/new_team_project_1/image/restaurant_data_image/석화정.png
r63,영도구,에테르,부산 영도구 절영로 234,35.077286,129.04646,051-263-5055,"흰여울 문화마을의 중심지에 위치한 4층으로 구성된 루프 탑 카페로,전 층에서 영도의 멋진 바다풍경을 감상 할 수 있는 곳이다 .가볍게 음료와 디저트를 즐길 수도 있지만 랍스터롤 등 인기 있는 식사메뉴도 갖추고 있다",C:/Users/KDT02/Desktop/new_team_project_1/image/restaurant_data_image/에테르.png
r64,연제구,디저트시네마,부산 연제구 쌍미천로 32-1,35.176273,129.09052,051-867-5757,"크로아상, 뺑 오 쇼콜라 등 페스츄리류를 기반으로 빵을 만들며당일 생산 당일 판매를 원칙으로 한다. 크루아상이 특히 인기 있으며조금 늦게 찾아가면 모든 빵이 매진되어 버리는 인기 베이커리",C:/Users/KDT02/Desktop/new_team_project_1/image/restaurant_data_image/디저트시네마.png
r65,연제구,북경,부산 연제구 중앙대로 1076번길 11,35.18377,129.08086,051-863-0055,"연산동의 중심가골목에 위치한 중식당으로 요리를 전문으로 하여 이 지역 회사원들이 회식장소로도 자주 찾는 곳이다. 모든 메뉴의 수준이 높은 곳이기도 하지만, 특히 짜장면이 맛있기로 유명하다.",C:/Users/KDT02/Desktop/new_team_project_1/image/restaurant_data_image/북경.png
r66,연제구,연산낙지해물탕,부산 연제구 과정로 121,35.182316,129.10692,051-758-8838,"해물탕은 원래 푸짐한 해산물들이 담겨 나오는 음식이지만, 이 곳의 해물탕은 음식을 잘모르는 사람도 싱싱하다는 것을 알 수 있는 해산물들이 뚜껑이 닫히지 않을 정도로 담겨 나온다. 해물탕이 익을 때쯤 살아있는 낙지를 손질해 넣어주는 것이 특징이다.",C:/Users/KDT02/Desktop/new_team_project_1/image/restaurant_data_image/연산낙지해물탕.png
r67,연제구,웰빙여행,부산 연제구 중앙대로 1043번길 50,35.181526,129.07504,051-864-3455,"부산시청 근처의 칼국수와 만두전문점으로, 매생이 칼국수, 들깨 칼국수 등 조금 특별한 칼국수와 함께 푸짐한 만두전골을 먹을 수 있는 곳이다. 만두는 매일매일 직접만들며, 여름에는 직접 갈아만든 콩칼국수를 판매하기도 한다.",C:/Users/KDT02/Desktop/new_team_project_1/image/restaurant_data_image/웰빙여행.png
r68,연제구,옻바다전복 삼계탕,부산 연제구 월드컵대로 119번길 16,35.18473,129.08128,051-862-3307,"연산동 중심가골목에 위치한 삼계탕전문점으로, 대표적인 보양음식인 옻나무삼계탕에 전복을 추가하여 먹을 수 있는 것이 특징이다. 식전주로 옻술이 제공되는 이 곳은 TV프로그램에도 소개 된 유명한 식당이다.",C:/Users/KDT02/Desktop/new_team_project_1/image/restaurant_data_image/옻바다전복 삼계탕.png
r69,연제구,참참부자,부산 연제구 월드컵대로 145번길 23,35.185333,129.08035,051-851-1969,"연산동 중심가골목에 위치한 일식코스전문점으로, 참치와 자연산회를 맛볼 수 있는 곳이다. 코스요리를 전문으로 하는 곳인 만큼 회는 물론이며, 음식 하나하나가 높은 수준이다.점심한정메뉴를 찾는 손님도 많은 곳",C:/Users/KDT02/Desktop/new_team_project_1/image/restaurant_data_image/참참부자.png
r70,연제구,팔미초밥,부산 연제구 월드컵대로 119번길 8,35.184906,129.0818,051-861-7679,"부산의 대표적인 일식전문점 중 한 곳으로, 상업지역인 이 지역에서도 손님을 대접하기 좋은 곳으로 유명한 식당이다. 30년 경력의 오너쉐프가 운영하고 있으며, 이 곳의 코스요리는 가격에 비해 높은 만족도를 자랑한다.",C:/Users/KDT02/Desktop/new_team_project_1/image/restaurant_data_image/팔미초밥.png
r71,수영구,다리집,수영구 남천바다로10번길 70 101호,35.146637,129.11076,051-625-0130,"부산에서 가장 유명한 떡볶이 전문점 중 한 곳으로, 포장마차 장사를 하던 시절에손님들의 다리만 밖에서 보인다하여 다리집이라 불리게 된 이곳은한 개만 먹어도 배가 부를 것 같은, 큼직한 떡볶이와 오징어튀김이 유명하다.",C:/Users/KDT02/Desktop/new_team_project_1/image/restaurant_data_image/다리집.png
r72,북구,남촌,북구 금곡대로8번길 14,35.21074,129.00595,051-335-9294,"청정지역인 지리산 아래 산청의 흑돼지만 사용하고 있는 믿을 수 있는 돼지구이전문점이다.사용되는 흑돼지 자체가 일반적인 돼지고기와 식감과 맛의 차이가 많이 나며,껍데기가 붙어 있는 오겹살 흑돼지 고기를 쓰는 것이 특징이다.",C:/Users/KDT02/Desktop/new_team_project_1/image/restaurant_data_image/남촌.png
r73,북구,북경의자전거,부산광역시 북구 용당로5번길 14,35.230934,129.00957,051-902-8282,"본격적인 중국풍의 인테리어가 특색있는 이 중식당은 중국인 쉐프들이 요리하고 있는 것으로 유명하다. 사용되는 면은 전통방식인 수타로 만들고, 다양하고 많은 종류의 요리들을 만드는 단골 손님이 많은 가게이다.",C:/Users/KDT02/Desktop/new_team_project_1/image/restaurant_data_image/북경의자전거.png
r74,북구,식당 3선(덕천점),부산 북구 금곡대로 112,35.21927,129.00708,051-333-0050,"숯불구이, 파삼겹구이, 밀면 등을 맛볼 수 있는 식당인 이곳은 나이와 취향에 관계없이 즐길 수있는 대중적인 맛이 특징으로, 넓은 공간을 가지고 있어 가족외식장소로 인기 있다. 메인요리인 숯불구이는 조리되어 제공되어서 먹기 편하다.",C:/Users/KDT02/Desktop/new_team_project_1/image/restaurant_data_image/식당 3선(덕천점).png
r75,북구,함경면옥,부산 북구 금곡대로 21,35.21178,129.00423,051-363-5000,"22년의 전통을 가지고 있는 함흥냉면 전문점으로, 메뉴에 들어가는 모든 재료들을 직접 만든다. 고구마 전분 특유의 탄력과 쫄깃함을 가진 함흥식 냉면 사리가 특징이며, 진한 육수가 맛있는 물냉면과 숙성된 가오리 회가 올라가는 회비빔면이 인기메뉴이다.",C:/Users/KDT02/Desktop/new_team_project_1/image/restaurant_data_image/함경면옥.png
r76,수영구,홍옥당,부산 수영구 남천동로 108번길 49,35.146893,129.11392,051-627-1026,"광안리해수욕장 앞 골목길에 위치한 아담한 이 가게는 국산 팥만을 사용하여 음식들을 만드는 팥전문점이다. 팥빙수와 단팥죽, 단팥빵이 유명한데,특히 단팥빵의 인기가 높아 빵을 사가려는 사람들의 줄이 길게 늘어서곤 한다.",C:/Users/KDT02/Desktop/new_team_project_1/image/restaurant_data_image/홍옥당.png
r77,서구,디에이블 송도점,부산 서구 충무대로 47 3층,35.076706,129.01715,051-231-9177,"유명한 양식레스토랑인 디에이블의 분점으로, 가게 전체에서 보이는 멋진 바다풍경 속에서 특별한 식사를 할 수 있는 곳이다. 시그니처 메뉴인 피자는 페스츄리 도우를 사용해 촉촉한 것이 특징이며, 특제소스를 사용해 매콤하면서 고소한 파스타도 인기 있다.",C:/Users/KDT02/Desktop/new_team_project_1/image/restaurant_data_image/디에이블 송도점.png
r78,서구,몽실종가돼지국밥,"서구 까치고개로 197번길 3, 1층",35.10019,129.01718,051-256-0133,"감천문화마을 근처에 있는 돼지국밥전문점으로, 청결한 실내와 친절한 점원들이 인상적이다.사골뼈를 24시간 이상 푹 고아 만든 국물이 유명하고, 국밥에 들어가는 고기양과 고기 종류를 선택할 수 있는 것이 특징이다.",C:/Users/KDT02/Desktop/new_team_project_1/image/restaurant_data_image/몽실종가돼지국밥.png
r79,서구,식당 토성동,부산 서구 구덕로 124번길 27,35.097954,129.02257,0507-1353-1425,"의외의 장소에 자리하고 있는 아담하고 예쁜 인테리어의 덮밥전문점으로, 간단한 음식, 깔끔한 맛, 친절한 서비스로 유명한 곳이다. 모든 음식이 인기메뉴이긴 하지만, 손질과 숙성을 거쳐 부드러운 맛의 한입 스테이크 덮밥이 대표메뉴라고 한다.",C:/Users/KDT02/Desktop/new_team_project_1/image/restaurant_data_image/식당 토성동.png
r80,서구,청죽,부산 서구 망양로 23,35.11293,129.01305,051-247-8555,"입구까지 이어진 근사한 정원이 멋진 일식코스요리전문점으로, 이 지역에서는 상견례 등격조 있는 모임의 장소로 많이 이용하는 곳이다. 비교적 비싼 가격의 식당이지만, 맛과 서비스 모두 충분히 만족스러운 곳이라고 한다. 일본식코스요리가 대표메뉴.",C:/Users/KDT02/Desktop/new_team_project_1/image/restaurant_data_image/청죽.png
r81,서구,편의방,서구 대신공원로 13-5,35.11915,129.01625,051-256-2121,"빨간 간판이 눈에 띄는 이곳은 3대째 이어오는 중국만두전문점으로, 하루에 40인분 한정에, 30분 전에 미리 전화로 주문해야 한다는 삼선만두가 유명한 곳이다.주문과 동시에 만드는 삼선만두는 각종야채와 새우가 가득 차 육즙이 흘러넘친다.",C:/Users/KDT02/Desktop/new_team_project_1/image/restaurant_data_image/편의방.png
r82,사하구,동원장수촌하단점,사하구 동매로 117 B 201호,35.10194,128.97113,051-202-4100,"도자기 장인이 빚어낸 둥그런 뚝배기에 음식을 담아내는 보양음식전문점으로,모임 등의 장소로도 인기 있는 곳. 녹두한방백숙이 특히 인기 있는 메뉴로황기, 구기자, 감초 등의 한약재와 녹두오리를 오래 삶아 보약 같은 국물과 부드러운 고기가 특징이다.",C:/Users/KDT02/Desktop/new_team_project_1/image/restaurant_data_image/동원장수촌하단점.png
r83,사상구,포항가자미물회,사상로 275-1,35.169525,128.98228,051-303-6640,"소박한 느낌의 동네식당으로, 시원한 물회에 국수를 말아먹는 것으로 유명한 물회전문점이다. 갖은 양념에 무쳐진 회와 물회 육수가 따로 제공되며, 여름에는 신선한 토마토에 싸먹고 겨울에는 김에 싸먹는 것으로 유명한 곳이다.",C:/Users/KDT02/Desktop/new_team_project_1/image/restaurant_data_image/포항가자미물회.png
r84,사상구,괘법쭈꾸미,광장로81번길 33,35.163906,128.98459,051-323-1383,"2007년 괘법동에서 시작한 이 지역의 대표적인 쭈꾸미요리전문점으로, 직접 만든 비법소스를 사용하여 매우면서도, 자꾸 먹게 되는 맛이 특징이다. 대표메뉴는 웰빙쭈꾸미이며, 단일메뉴로 꾸준한 맛을 유지 하고 있는 것이 오랜 인기의 비결이다.",C:/Users/KDT02/Desktop/new_team_project_1/image/restaurant_data_image/괘법쭈꾸미.png
r85,영도구,삼진어묵,부산시 영도구 태종로99번길 36 삼진어묵,35.092953,129.04279,051-412-5468,삼진어묵은 1953년부터 3대 째 가억을 잇고있는 대한민국 대표 어묵 브랜드입니다.,C:/Users/KDT02/Desktop/new_team_project_1/image/restaurant_data_image/삼진어묵.png
r86,남구,광명집,남구 신선로 458,35.125664,129.10095,051-621-4376,"20년이 넘게 대를 이어 운영 중인 아구찜/대구뽈찜 전문점으로신선하고 품질 좋은 재료들로 찜요리를 만들고 있다.대구뽈찜은 양파가 가득 올려 진 독특한 조리법이 사용되며, 두 가지 찜 요리가 모두 인기 있다",C:/Users/KDT02/Desktop/new_team_project_1/image/restaurant_data_image/광명집.png
r87,강서구,명지첫집,강서구 명지국제6로232번길 18,35.095818,128.92444,051-202-9599,기분이 좋아지는 푸짐한 한상차림의 보쌈정식과 쭈꾸미보쌈이 대표메뉴로명지를 상징하는 식재료인 소금과 대파를 활용한 젓갈과 대파김치를 보쌈요리에 곁들였다.,C:/Users/KDT02/Desktop/new_team_project_1/image/restaurant_data_image/명지첫집.png
r88,남구,드마히니 더블유스퀘어점,남구 분포로 145 (W스퀘어 2동),35.13426,129.11124,051-621-8118,"부산의 유명 베이커리 옵스(OPS)에서 만든 두 번째 프렌치 레스토랑으로 파리 현지 카페의 자유로운 분위기를 살린 공간이 특징이며, 소박하고 정성 가득한 프랑스 요리들과  스페셜티 등급의 다섯 가지 브루잉 커피도 맛 볼 수 있는 곳이다.",C:/Users/KDT02/Desktop/new_team_project_1/image/restaurant_data_image/드마히니 더블유스퀘어점.png
r89,남구,명품외식 육면정,남구 황령대로 329,35.148415,129.09482,051-623-6667,"다양한 연회석과 어린이 시설, 넓은 주차장을 가지고 있는 큰 규모의 구이전문식당으로 질 좋은 소고기와 신선한 야채들을 제공하고, 최고등급의 위생수준을 인증 받았다. 단체모임이나 가족외식하기 좋은 곳 이다.",C:/Users/KDT02/Desktop/new_team_project_1/image/restaurant_data_image/명품외식 육면정.png
r90,남구,호포갈비 문현점,남구 우암로 359,35.13401,129.06631,051-639-9200,"1층의 정육판매점에서 구입한 고기를 2층의 식당에서 구워먹는 방식의 식당으로,깔끔한 인테리어와 수준 높은 청결상태를 자랑한다.판매점에서는 질 좋은 육류를 취급하고 있으며, 다양한 부위의 한우를 직접 고를 수 있다",C:/Users/KDT02/Desktop/new_team_project_1/image/restaurant_data_image/호포갈비 문현점.png
r91,동구,평산옥,동구 초량중로 26,35.114292,129.0371,051-468-6255,4대에 걸쳐 운영하고 있는 100년 전통의 돼지수육전문식당으로 돼지수육과 수육 삶은 육수에 말은 국수가 유명하다. 국내산 신선한 고기로 만드는 육수는 맑은 국물 색과 담백하지만 진한 맛을 낸다. 100년을 이어온 자부심에 어울리는 맛이다.,C:/Users/KDT02/Desktop/new_team_project_1/image/restaurant_data_image/평산옥.png
r92,부산진구,공감식당,부산진구 동평로 81,35.16551,129.03838,051-891-2041,"보리를 사료로 키운 돼지를 전문가가 직접 선별, 숙성하여 전문교육을 받은 직원들이 직접 구워주는 구이전문점으로, 삼겹살과 구워먹는 치즈가 이 곳의 인기메뉴이다. 다양한 사이드 메뉴도 준비되어 있다.",C:/Users/KDT02/Desktop/new_team_project_1/image/restaurant_data_image/공감식당.png
r93,부산진구,다옴 (서면 삼정타워점),"부산진구 중앙대로 672, 삼정타워 5층",35.152874,129.05957,051-520-3778,가볍게 즐길 수 있는 한식메뉴를 선보이는 식당으로 남해안멸치로 만드는 육수와 과일을 첨가하여 만든 숙성양념 등 음식준비에 많은 정성을 들인다. 차돌박이가 토핑 된 비빔국수와 비빔밥이 대표메뉴이다.,C:/Users/KDT02/Desktop/new_team_project_1/image/restaurant_data_image/다옴 (서면 삼정타워점).png
r94,부산진구,당감밀면,부산진구 당감로 5 삼익아파트상가 B동 1층,35.162247,129.03975,051-896-0177,지역민들이 추천하는 밀면전문점으로 육수와 면·양념에 이르기까지 모든 재료를 주방장의 독자적인 비법으로 만들어 특징적인 밀면의 맛을 자랑한다. 직접 만드는 손만두도 담백한 맛으로 인기 있다.,C:/Users/KDT02/Desktop/new_team_project_1/image/restaurant_data_image/당감밀면.png
r95,부산진구,더브릭하우스,"부산진구 부전로152번길 70, 1층",35.15917,129.0585,051-805-7749,"번잡한 번화가 사이에 예쁜 벽돌집이 보인다. 이곳은 화덕피자가 맛있기로 유명한 이탈리안 레스토랑으로, 클래식한 공간과 클래식한 음악 그리고 이탈리안 음식과 어울리는 다양한 와인이 준비되어 있다.",C:/Users/KDT02/Desktop/new_team_project_1/image/restaurant_data_image/더브릭하우스.png
r96,부산진구,버거샵,부산진구 동천로 108번길 11,35.15856,129.06306,051-911-4960,"직접 손질하는 1등급 한우 패티와 매일 아침 구운 브리오슈 번으로 만드는 수제버거전문점으로,외국인 손님들도 많이 찾는 곳이다.독특한 인테리어를 즐기며 다양한 소품들도 구입하고 볼 수 있는 가게이다.",C:/Users/KDT02/Desktop/new_team_project_1/image/restaurant_data_image/버거샵.png
r97,부산진구,소수인,부산진구 가야대로750번길 17,35.156677,129.05383,051-808-4036,일식을 모티브로 한 새로운 스타일의 요리를 만들고 있는 일본식주점으로 영업을 시작한지 얼마 되지 않아 항상 사람들이 가득한 곳이 되었다. 개성강한 요리들은 술안주로도 식사로도 잘 어울린다.,C:/Users/KDT02/Desktop/new_team_project_1/image/restaurant_data_image/소수인.png
r98,사하구,양평칼국수,사하구 다대로 680-1,35.048454,128.967,051-265-0907,"다대포 해수욕장 인근의 식당으로 20년 경력의 칼국수 장인인 주인이 직접 반죽한 숙성면에 국산 배추로 매일 매일 담는 김치가 매력을 더한다. 여름에만 맛 볼 수 있는 냉칼국수, 냉콩칼국수 등의 한정메뉴들도 무척 인기 있다.",C:/Users/KDT02/Desktop/new_team_project_1/image/restaurant_data_image/양평칼국수.png
r99,사하구,영진돼지국밥,사하구 하신번영로157번길 39,35.09664,128.95784,051-206-3820,"유명한 돼지국밥 전문점 중 한 곳으로, 항상 많은 사람들이 찾아오는 곳이다. 돼지 특유의 냄새를 제거하여 깔끔하고 담백한 맛을 자랑하며 수육과 두부, 볶음김치가  함께 나오는 수육백반이 무척 인기 있다.",C:/Users/KDT02/Desktop/new_team_project_1/image/restaurant_data_image/영진돼지국밥.png
r100,서구,신흥반점,서구 충무대로 284-1,35.09595,129.02463,051-242-6164,"2대째 운영 중인 신흥반점은 서구에서 55년 동안 화교 가족들이 운영해오고 있는 곳으로, 중국 현지의 식당 같은 분위기의 가게에서 다양한 중국요리를 맛 볼 수 있다. 짬뽕국물과 깐풍기가 이 곳에서 추천하는 인기 메뉴이다.",C:/Users/KDT02/Desktop/new_team_project_1/image/restaurant_data_image/신흥반점.png
r101,연제구,동원 숯불 갈비,연제구 과정로276번길 9,35.188595,129.09715,051-864-2379,한적한 골목길에 숨겨져 있는 이 돼지갈비전문점은 38년간 숯불돼지갈비 한 메뉴로 이 장소를 지켜온 식당이다. 쉽게 찾기 힘든 위치에 있지만 친근하고 꾸준한 맛으로 많은 단골고객들이 찾아오는 곳,C:/Users/KDT02/Desktop/new_team_project_1/image/restaurant_data_image/동원 숯불 갈비.png
r102,영도구,도날드 즉석 떡볶이,영도구 꿈나무길 267(1층),35.085815,129.04295,051-413-9990,지역민들에게 추억의 장소인 이곳은 35년간 운영해온 유명한 즉석떡볶이 전문점으로해물 육수와 고추장소스를 사용하여 독특한 맛을 자랑한다.후식으로 판매하는 빵크림을 먹기 위해 찾아오는 사람들도 많다,C:/Users/KDT02/Desktop/new_team_project_1/image/restaurant_data_image/도날드 즉석 떡볶이.png
r103,영도구,영도우,영도구 조내기로5번길 2,35.08781,129.06128,070-4659-0169,부산항이 한눈에 들어오는 장소에 위치한 피자전문점으로자체개발한 도우로 만든 테두리가 없는 사각형의 디트로이트식 피자가 대표메뉴이다.임실치즈를 아낌없이 사용하여 풍부한 치즈의 맛을 즐길 수 있다,C:/Users/KDT02/Desktop/new_team_project_1/image/restaurant_data_image/영도우.png
r104,영도구,함흥보쌈,영도구 남항로 42,35.08845,129.04108,051-416-2342,냉면전문점으로 시작하여 50여년을 운영 중인 보쌈전문점으로 싱싱한 고기를 사용하고 부드러운 맛으로 유명하다. 오랜 전통을 자랑하는 냉면도 인기메뉴이며 어떤 메뉴를 주문하든 만족스러운 양이 제공된다.,C:/Users/KDT02/Desktop/new_team_project_1/image/restaurant_data_image/함흥보쌈.png
r105,중구,원산면옥 1953,중구 광복로 56-8,35.098976,129.03105,051-245-2310,"60여 년의 전통을 가진 냉면전문점으로 3대째 운영하고 있는 무척 유명한 곳이다.한우와 국내산 생돼지고기, 생닭을 사용하고 10여 가지 재료가 들어간 육수로 만든 냉면은변하지 않는 맛을 자랑한다.",C:/Users/KDT02/Desktop/new_team_project_1/image/restaurant_data_image/원산면옥 1953.png
r106,해운대구,개미집신도시점,해운대구 좌동로 10번길 51-5,35.167637,129.17154,051-744-6446,"부산의 대표적인 낙지요리전문점인 개미집의 분점으로, 본점에 뒤쳐지지 않는 맛을 선보이고 있다. 본점과 같이 낙지볶음, 낙지새우볶음, 낙지곱창볶음 등의 요리들이 모두 인기 있으며, 불고기낙지버섯전골과 곱창전골을 찾는 손님도 많다.",C:/Users/KDT02/Desktop/new_team_project_1/image/restaurant_data_image/개미집신도시점.png
r107,강서구,오리한상,"명지국제9로 66, 지봉빌딩 2층",35.097855,128.92471,051-711-0415,"청둥오리를 사용한 소금구이와 급속 냉동된 오리를 아주 얇게 슬라이스한 불고기가 모두 인기있는 이곳은, 커다란 창을 활용한 깔끔하고 여유로운 공간과 함께 개별룸도 운영하고 있어 가족외식하기에도 좋은 곳이다.",C:/Users/KDT02/Desktop/new_team_project_1/image/restaurant_data_image/오리한상.png
r108,금정구,"오,유미당",금정로 187,35.241432,129.08784,0507-1372-5101,"카페처럼 예쁜 공간에 돈카츠와 쌀국수라는 이색적인 조합의 메뉴를 가진 곳으로, 처음 보면 조금 당황스러운 모습을 가진 토마호크 돈카츠가 가장 인기 있다고 한다. 쌀국수의 수준도 높아 여러 취향을 다 만족시키는 곳이다.","C:/Users/KDT02/Desktop/new_team_project_1/image/restaurant_data_image/오,유미당.png"
r109,기장군,만포밀면,기장읍 차성로 322번길 40,35.245934,129.21597,051-722-7516,"매장에 들어서면 진한 육수냄새가 맛을 기대하게 하는 이곳은 가야식 밀면을 만들고 있는 곳으로, 95년 가게를 연 이후 매일 그 날 판매할 밀면을 시식하는 것으로 시작한다고 한다. 변하지 않는 맛은 언제나 기쁘다.",C:/Users/KDT02/Desktop/new_team_project_1/image/restaurant_data_image/만포밀면.png
r110,기장군,맛사랑채,기장읍 읍내로 93-6,35.24538,129.2147,051-722-4210,생선구이가 포함된 12가지의 반찬과 함께 매일 다른 국이 제공되는 이곳의 정식은 집밥 보다 더 집밥 같다는 평을 듣고 있다. 인심 가득한 밥상을 만나기 위해 먼 곳에서 찾아오는 손님들도 많다고 한다.,C:/Users/KDT02/Desktop/new_team_project_1/image/restaurant_data_image/맛사랑채.png
r111,사하구,우정까망촌돼지,장림번영로 53,35.08081,128.97154,051-261-6021,"구이전문점인 이곳은, 어린 시절 시골에서 먹던 돼지고기의 맛을 재현하기 위해 청정지역에서 키운 돼지를 공수해온다고 한다. 솥뚜껑에 구워먹는 것이 특징인데 맛도 맛이지만, 구워지는 모습이 정말 참기 힘들다.",C:/Users/KDT02/Desktop/new_team_project_1/image/restaurant_data_image/우정까망촌돼지.png
r112,사하구,유메,낙동대로 456,35.105747,128.96916,070-8807-1689,"8종의 하이볼, 27종의 청주와 국내산 증류주 등 다양한 술과 그에 어울리는 다양한 안주들이 준비되어 있는 일본식주점이지만, 돈카츠전문점이라 알고 있는 사람들도 있을 만큼 오너쉐프가 직접 손질해 만드는 돈카츠가 유명하다고 한다.",C:/Users/KDT02/Desktop/new_team_project_1/image/restaurant_data_image/유메.png
r113,수영구,금랑횟집 광안리 본점,"광안해변로344번길 17-5, 마린리치건물 6층",35.155155,129.131,0507-1400-5209,수변공원 회센터에 자리한 횟집으로 메인요리인 회와 함께 제공되는 음식들이 다양하고 수준이 높아 회를 즐기지 않는 사람들도 충분히 즐길 만한 곳이다. 광안대교의 전경이 보이는바다풍경으로 유명한 곳이기도 하다.,C:/Users/KDT02/Desktop/new_team_project_1/image/restaurant_data_image/금랑횟집 광안리 본점.png
r114,수영구,난파센,남천동로108번길 43,35.14674,129.11339,051-622-0527,좋은 재료를 직접 손질하고 직접 만든 특제 소스를 사용해 인기 높은 튀김덮밥전문점으로 밥과 어울리는 튀김을 만들기 위해 무척 많은 연구를 한다고 한다. 밥 위에 올려진 갈색의 튀김이 특징적이다.,C:/Users/KDT02/Desktop/new_team_project_1/image/restaurant_data_image/난파센.png
r115,중구,화국반점,중구 백산길3,35.10253,129.0342,051-245-5305,"43년 전통의 중식전문점으로 간짜장이 특히 유명한 이곳은, 전통적인 방식의 요리로 외국인들이 많이 찾는 곳이기도 하다.신세계와 범죄와의 전쟁 등 영화촬영지로도 유명하다.",C:/Users/KDT02/Desktop/new_team_project_1/image/restaurant_data_image/화국반점.png
r116,수영구,로얄경양식&스테이크 광안점,"민락수변로 29, 2층 201~203호",35.153294,129.12462,051-759-8718,"광안리의 바다풍경을 즐기며 식사를 할 수 있는 패밀리레스토랑으로 가격에 비해 높은 수준의 음식과 서비스를 제공하고 있다. 조리하는 모습을 직접 볼 수 있는 오픈주방을 운용하고있으며, 바다를 충분히 즐길 수 있는 실내 환경이 인상적이다.",C:/Users/KDT02/Desktop/new_team_project_1/image/restaurant_data_image/로얄경양식&스테이크 광안점.png
r117,중구,이정태 본참치,중구 해관로73,35.10548,129.03526,051-463-3737,"전국의 참치 매니아들이 찾아오는 유명한 참치전문점으로, 조리명인인 오너쉐프가 운영하고 있는 곳이다. 당일재료는 당일소진하고 있으며, 노인들을 위한 행사를 개최하는 등 지역 사회에 기여하고 있는 식당이기도 하다.",C:/Users/KDT02/Desktop/new_team_project_1/image/restaurant_data_image/이정태 본참치.png
r118,수영구,무궁화 식당,황령산로8번길 5,35.14778,129.10925,051-623-5700,"할머니집에 놀러온 것 같은 느낌을 주는 이곳은 전골요리로 무척 유명한 식당으로, 직접 만든 커다란 만두를 사용한 만두전골이 특히 인기 있다. 신선한 야채를 사용하는 이곳은 항상 변함없는 맛으로 기억되는 곳이기도 하다.",C:/Users/KDT02/Desktop/new_team_project_1/image/restaurant_data_image/무궁화 식당.png
r119,중구,어가초밥,자갈치로 41,35.097214,129.02882,051-247-3777,부산 최대 수산물시장인 자갈치시장과 인접한 일식전문점으로 빠르게 재료를 공수하여 신선한 음식을 제공하고 있다. 대부분의 좌석이 독립된 룸으로 운영되고 있어 편안하게 식사를 즐길 수 있기도 하다.,C:/Users/KDT02/Desktop/new_team_project_1/image/restaurant_data_image/어가초밥.png
r120,기장군,배꼽시계,일광면 장곡길 63-14,35.30255,129.24944,051-728-6118,약선 요리를 추구하여 수술 후 환자들도 자주 찾을 만큼 건강한 음식을 만드는 오리요리전문점으로 계절재료를 사용해 장아찌를 담고 2년 이상 숙성시킨 김치를 사용한다. 오리백숙은 시간이 많이 걸리니 2시간 이상 전 예약이 필수다.,C:/Users/KDT02/Desktop/new_team_project_1/image/restaurant_data_image/배꼽시계.png
r121,수영구,배가왕,광안해변로 348-1,35.15554,129.13087,051-758-4200,"매일 2시간씩 육수를 끓이고, 직접 담은 김치를 준비한다. 기본에 충실한 음식을 만들기 위해 노력한다는 칼국수전문점으로, 당근을 갈아 넣어서 밀가루 냄새가 나지 않는 면이 특징이다. 기본은 언제나 정답이다.",C:/Users/KDT02/Desktop/new_team_project_1/image/restaurant_data_image/배가왕.png
r122,중구,삼정횟집,중앙대로 98번길 13,35.10655,129.03775,051-462-1321,"물회로 유명한 이곳은, 점심시간에 이 지역에 있다면 꼭 찾아야하는 식당 중 한곳이다. 매운탕이 함께 제공되는 이곳의 식사메뉴는 특히 직장인들에게 인기가 많으며, 당일 활어만 사용하여 신선도가 높은 것이 특징이다.",C:/Users/KDT02/Desktop/new_team_project_1/image/restaurant_data_image/삼정횟집.png
r123,기장군,변소영 백년밥상,기장읍 읍내로 93-8,35.245594,129.2147,051-721-8922,"장류부터 밑반찬까지 모두 직접 장만하고 천연조미료만 사용해 맛을 낸다. 직장인들은 물론이고, 입맛이 까다로운 시장상인들과 외국인들도 자주 찾아 유명해진 한식점으로 청결관리에도 무척 신경을 쓰고 있다.",C:/Users/KDT02/Desktop/new_team_project_1/image/restaurant_data_image/변소영 백년밥상.png
r124,기장군,사랑도 횟집,기장읍 차성로 337-1,35.247726,129.21346,051-722-7001,"매일 좋은 횟감을 선별해서 준비하고, 직접 만든 반찬들로 식탁을 채운다. 음식에 대해 정직하게 운영한다는 이곳은 단골이 많기로 유명한 횟집으로, 가격이 다소 높아 보이지만 음식이 차려지면 오히려 저렴하다는 생각이 들게 한다.",C:/Users/KDT02/Desktop/new_team_project_1/image/restaurant_data_image/사랑도 횟집.png
r125,중구,삼송초밥,중구 광복로55번길 13,35.099678,129.02986,051-245-7870,"부산에서 가장 유명한 일식전문점 중 한 곳으로 65년 이상의 역사를 가지고 있으며,대를 이어 오는 손님들이 이곳의 변치 않는 맛을 보증하고 있다.특히 김초밥으로 많이 알려져 있기도 한 곳이다",C:/Users/KDT02/Desktop/new_team_project_1/image/restaurant_data_image/삼송초밥.png
r126,기장군,솔리보,"일광면 해송4로 21, 201호",35.26711,129.23145,051-723-4400,"스승에게 전수받아 계승·발전시킨 토마토 소스가 특기라는 젊은 오너쉐프는, 스테이크에 쓰는 고기도 직접 정육하여 8시간 이상의 수비드 과정을 거쳐 만들고 있다. 햇살이 들어오는 단정한 인테리어의 공간이 이름처럼 무척 따듯하게 느껴지는 곳이다.",C:/Users/KDT02/Desktop/new_team_project_1/image/restaurant_data_image/솔리보.png
r127,중구,부산족발,중구 광복로 13-1,35.09956,129.02664,051-245-5359,"부평동 돼지족발골목에 위치한 족발전문점으로, TV 프로그램으로도 자주 소개되는 유명한 식당이다. 이 지역은 부산의 향토음식인 냉채족발이 탄생한 곳으로도 유명한데, 부산족발도 담백하고 탄력 있는 족발과 냉채족발이 유명하다.",C:/Users/KDT02/Desktop/new_team_project_1/image/restaurant_data_image/부산족발.png
r128,수영구,시티바캉스,광안로 21번가길 11-1,35.15693,129.11592,051-755-1101,한적한 주택가에 자리한 파스타전문점인 이곳은 스타일리시한 공간과 스타일리시한 음식으로 특히 젊은이들 사이에서 인기 높다. 도심 속 이색적인 공간에서의 바캉스를 경험하고 싶다면 이곳을 추천한다.,C:/Users/KDT02/Desktop/new_team_project_1/image/restaurant_data_image/시티바캉스.png
r129,기장군,PHOever Yum(포에버얌),일광면 문오성길 43,35.282776,129.2583,051-721-3645,현지 풍 인테리어의 매장으로 들어오면 동남아의 어촌마을에 있는 느낌이 드는 이곳은 육수와 소스 양념 등을 모두 직접 만들고 있는 베트남음식전문점. 아늑한 분위기로 연인과 가족들이 많이 찾는 곳이기도 하다,C:/Users/KDT02/Desktop/new_team_project_1/image/restaurant_data_image/PHOever Yum(포에버얌).png
r130,중구,물레방아 즉석구이,중구 중앙대로41번길 11-1,35.10104,129.03513,051-245-1195,"미식가들 사이에서 꾸준히 좋은 평가를 받고 있는 45년 전통의 구이전문점으로 ,한우 안거미 부위를 안금무라는 별칭으로 판매해 더 유명한 곳이기도 하다 .명점으로 인정받는 곳 답게 고기선별에 무척 신경을 쓴다고 한다.",C:/Users/KDT02/Desktop/new_team_project_1/image/restaurant_data_image/물레방아 즉석구이.png
r131,수영구,양귀빈 식당 3호점,수영로646번길 15,35.163265,129.116,051-756-0840,아직은 흔하게 보기 힘든 양고기구이전문점으로 카페를 해도 어울릴만한 인테리어가 인상적이다. 숙련된 점원이 고기를 구워주는 이곳은 일식을 전공한 오너가 많은 공부를 통해 질 좋은 양고기를 장만한다고 한다.,C:/Users/KDT02/Desktop/new_team_project_1/image/restaurant_data_image/양귀빈 식당 3호점.png
r132,동구,고민끝에여기,"대영로239번길 12, 1층",35.112698,129.03706,051-442-1592,"향이 강한 멕시코음식을 한국인의 입맛에 맞게 만들어내는 이곳은 매일 신선한 재료를 새로 준비하고, 새우를 주재료로 한 요리들이 많다. 고민 끝에 가게자리를 정했다는 의미의 이름이 무척 독특하다.",C:/Users/KDT02/Desktop/new_team_project_1/image/restaurant_data_image/고민끝에여기.png
r133,중구,명송초밥,해관로 32,35.101738,129.03586,051-246-1225,"상업지역인 이 지역에서도 접대나 모임하기 좋은 곳으로 유명한 일식전문점으로, 수준 높은 음식에 어울리는 디테일한 플레이팅이 음식을 더욱 돋보이게 만든다. 2~3시간 숙성한 회를 제공하고 있다.",C:/Users/KDT02/Desktop/new_team_project_1/image/restaurant_data_image/명송초밥.png
r134,동구,다께,범일로102번길 12,35.138863,129.06076,051-631-6891,"범일동의 유명 일식전문점으로 오너쉐프가 직접 주재료를 장만하고 있으며, 미리 연락해 두면 원하는 회나 직접 낚시한 생선을 요리해 주기도 한다. 벽면 가득한 유명인들의 사인이 이곳의 맛을 보장하고 있다.",C:/Users/KDT02/Desktop/new_team_project_1/image/restaurant_data_image/다께.png
r135,중구,남포삼계탕,남포길 16,35.098812,129.03049,051-245-5075,"광복로패션거리 근처에 있는 이곳은 50년 이상 운영해 온 유명한 삼계탕 전문점으로, 대표메뉴인 삼계탕은 뱃속에 찹쌀과 인삼, 밤, 대추를 채워 넣은 닭 한 마리를 육수에 넣고 뚝배기에 끓는 채로 내어준다. 전기구이도 인기 있다.",C:/Users/KDT02/Desktop/new_team_project_1/image/restaurant_data_image/남포삼계탕.png
r136,수영구,지에이비148,"광안해변로 122, 삼익비치B상가 2층",35.145763,129.11497,051-791-0148,연인들이 많이 찾는다는 다이닝펍으로 깔끔한 실내와 야외테라스가 인상적이다. 이곳의 시그니처 메뉴인 스테이크는 250도로 달궈진 돌 위에 올려져 레어부터 웰던까지 모든 굽기의 스테이크를 맛볼 수 있어 인기 있다.,C:/Users/KDT02/Desktop/new_team_project_1/image/restaurant_data_image/지에이비148.png
r137,동구,대수정,자성로 133번길 46,35.140755,129.06291,051-647-0147,"40년 이상 운영하고 있는 한식전문점으로 직접 운영하는 농장에서 공수한 재료로 된장, 간장, 김치 등을 만들고 있으며, 질 좋은 한우를 사용한다. 솥밥과 함께 차려지는 가득한 밥상이 기분 좋은 곳이다.",C:/Users/KDT02/Desktop/new_team_project_1/image/restaurant_data_image/대수정.png
r138,영도구,목장원,영도구 절영로 355,35.07162,129.05736,051-404-5000,"원래 소를 키우는 목장이었던 이 곳은 영도에서 가장 유명한 식당 중 한 곳으로, 식당과 카페 공원이 함께 있는 복합외식공간이다. 음식의 수준도 무척 높지만 이곳에서 보이는 바다풍경은 정말 각별하다.",C:/Users/KDT02/Desktop/new_team_project_1/image/restaurant_data_image/목장원.png
r139,수영구,톤쇼우,광안해변로279번길 13,35.15631,129.12474,051-752-7978,"오픈 2시간 전부터 대기 줄이 있을 만큼 유명한 돈까스 전문점으로, 두툼하면서도 무척 부드러운 이곳의 돈까스는 참숯으로 훈연하여 놀라운 맛을 선사한다. 기다리는 손님을 위한 배려로 2층에 휴게공간을 운영하고 있기도 하다.",C:/Users/KDT02/Desktop/new_team_project_1/image/restaurant_data_image/톤쇼우.png
r140,영도구,그라치에,영도구 청학동로 12,35.089043,129.06154,070-4150-9999,"모던한 인테리어의 작고 예쁜 이탈리안 레스토랑으로많은 사람들이 이태리음식을 쉽게 접하길 바라는 마음을 담아 운영하고 있다고 한다.특히, 이곳의 감자뇨끼는 손님들이 추천하는 메뉴이다.",C:/Users/KDT02/Desktop/new_team_project_1/image/restaurant_data_image/그라치에.png
r141,수영구,황해도 본점,수영구 수영로394번길 35-3,35.1407,129.109,0507-1427-0507,"깔끔하고 높은 수준의 음식들과 한국 전통주를 함께 즐길 수 있는 한식주점인 이곳은,비교적 낮은 가격으로 여러 가지를 맛볼 수 있는 주안상이 인기 있으며,무엇보다 좋은 대접을 받았다는 느낌을 주는 매력적인 곳이다",C:/Users/KDT02/Desktop/new_team_project_1/image/restaurant_data_image/황해도 본점.png
r142,수영구,프라한,남천동로108번길 52,35.146706,129.11386,0507-1362-8935,"빈티지한 느낌의 가구와 공간을 가득 메운 식물들이 영화 속 장면을 연상시키는 이곳은 샌드위치의 빵과 스튜의 토마토소스 등을 직접 만드는 브런치카페로, 언제나 편안한 분위기를 즐기러 오는 손님들로 가득하다.",C:/Users/KDT02/Desktop/new_team_project_1/image/restaurant_data_image/프라한.png
r143,동구,동촌황정순수육전골,조방로39-12,35.13937,129.06071,051-637-7178,"자극적이지 않지만 풍부한 맛의 국물요리가 특징인 곳으로, 미리 삶아 기름을 제거한 고기를 두껍게 썰어서 사용해 식감이 좋다. 모든 재료는 국내산을 사용하고 단 두 가지 메뉴만 정성껏 준비하고 있다.",C:/Users/KDT02/Desktop/new_team_project_1/image/restaurant_data_image/동촌황정순수육전골.png
r144,동구,소우닭계,조방로 16번길 20,35.13942,129.0646,051-633-2292,"이름처럼 소와 닭을 사용한 한식요리를 전문으로 하는 곳으로, 오너쉐프의 비법으로 만든 부드러운 갈비찜이 유명하다. 밑반찬까지 직접 장만하고 있는 이곳은 혼자서도 갈비찜을 먹을 수 있는 메뉴가 준비되어 있다.",C:/Users/KDT02/Desktop/new_team_project_1/image/restaurant_data_image/소우닭계.png
r145,동구,양지추어탕,중앙대로371번길 70-4,35.130672,129.04565,051-467-3924,"커다란 가마솥으로 끓인 추어탕에 농가에서 공수한 고춧가루를 사용하고, 직접 담은 김치를 사용하는 안심할 수 있는 식당이다. 저렴한 가격에 비해 놀라운 맛과 푸짐한 양의 음식이 제공되어 단골고객이 많다고 한다.",C:/Users/KDT02/Desktop/new_team_project_1/image/restaurant_data_image/양지추어탕.png
r146,동구,오스테리아비비,동구 홍곡남로18번길 5,35.12526,129.03906,네이버를 통한 예약만 가능,"이탈리아 요리학교 출신 쉐프와 나폴리피자 장인협회에서 인정한피자욜로가 운영하고 있는 100% 예약제 레스토랑으로 프라이빗한 공간에서 식사를 즐길 수 있다.디너만 운영하고 있으며, 수요일 디너는 피자만 제공하고 있다.",C:/Users/KDT02/Desktop/new_team_project_1/image/restaurant_data_image/오스테리아비비.png
r147,동구,웅복,"진성로28번길 19, 1층",35.130657,129.0478,051-632-2019,"부부가 운영하고 있는 복어요리전문점으로 식사에 돌솥밥이 제공되는 것이 특징이다. 직접 담은 김치를 사용하며, 당일 재료는 당일 소진하고 있는 이곳의 코스요리는 가격에 비해 놀라울 정도의 음식들이 제공된다.",C:/Users/KDT02/Desktop/new_team_project_1/image/restaurant_data_image/웅복.png
r148,동구,초량통닭,초량로 15,35.118904,129.03996,051-468-2738,"1976년부터 40년이 넘게 운영하고 있는 이곳은, 이 지역에서는 모르는 사람이 드문 유명한 식당이다. 이곳의 육즙 가득한 프라이드치킨은 오랫동안 사랑받아온 메뉴로, 언제나 퇴근 후의 직장인들이 만석을 이루고 있다.",C:/Users/KDT02/Desktop/new_team_project_1/image/restaurant_data_image/초량통닭.png
r149,동구,코카모메 초량점,영초윗길20,35.116886,129.0351,051-711-1755,"초량 이바구길의 도심전망이 좋은 곳에 위치한 튀김덮밥전문점으로, 연령층에 관계없이 만족스런 식사로 인기 높은 식당이다. 모든 재료는 국내산으로 준비하고 당일재료는 당일에 소진하고 있다",C:/Users/KDT02/Desktop/new_team_project_1/image/restaurant_data_image/코카모메 초량점.png
r150,동구,홍성방,동구 중앙대로 179번길 16,35.113834,129.03781,051-467-5398,"3대에 걸쳐 50년이 넘게 운영해오고 있는 이곳은, 부산차이나타운에서도 가장 유명한 식당 중 한 곳이다. 오래전부터 영주동 물만두집으로 불렸을 만큼 물만두가 인기 있으며, 주말에는 지방에서도 찾아오는 단골손님들이 많다.",C:/Users/KDT02/Desktop/new_team_project_1/image/restaurant_data_image/홍성방.png
r151,동래구,가두리닭숯불구이,충렬대로179번길 27-3 1층,35.204994,129.07947,051-556-1230,"이곳은 소나 돼지처럼 닭을 6가지 부위로 구분하여 원하는 부위만 주문할 수 있는 독특한 방식의 닭구이전문점으로, 요리경영학과 출신의 오너가 야채와 생닭을 직거래로 공수하여 재료의 신선도가 높다.",C:/Users/KDT02/Desktop/new_team_project_1/image/restaurant_data_image/가두리닭숯불구이.png
r152,동래구,먹음직,온천천로431번길 4-1,35.19219,129.1003,051-532-2888,"온천천 카페거리에 있는 구이전문점인 이곳은, 유통도 함께 하고 있어 언제나 신선한 고기가 준비되어 있다. 직접 숙성한 고기와 함께 모든 음식을 정직하고 정성스럽게 제공하고 있는 곳으로 높은 평가를 받고 있다.",C:/Users/KDT02/Desktop/new_team_project_1/image/restaurant_data_image/먹음직.png
r153,동래구,미미루,온천장로 91-1,35.219486,129.08296,051-555-6609,"유니크한 레시피로 인기 높은 중식당인 이곳은, 6시간 이상 숙성한 고기로 만든 탕수육과 물을 사용하지 않고 양파즙으로 조리한 짜장면이 특히 인기 있다. 식사류의 음식에는 모두 계란프라이를 올려주는 것이 재미있다.",C:/Users/KDT02/Desktop/new_team_project_1/image/restaurant_data_image/미미루.png
r154,동래구,밀보스79,명륜로129번나길 11,35.2058,129.08028,051-555-8568,"캐주얼한 분위기의 실내가 먼저 눈에 들어오는 이곳은, 파스타나 피자 등의 메뉴와 함께 술을 즐길 수 있는 다이닝펍으로, 비교적 부담 없는 가격으로 좋은 시간을 보낼 수 있는 곳이다. 직접 만든 면과 소스를 사용한 파스타가 특히 맥주와 어울린다고 한다.",C:/Users/KDT02/Desktop/new_team_project_1/image/restaurant_data_image/밀보스79.png
r155,동래구,순이네곱창,충렬대로 359번길 24,35.198902,129.09865,051-621-8899,대한민국 조리기능장인 오너쉐프는 밑반찬부터 주재료인 곱창의 손질까지 모두 직접 장만하고 있다. 솔잎을 사용하여 잡냄새를 제거하여 더 부드러운 맛을 가진 이곳의 곱창은명인이 준비한 세가지 소스와 만나 더욱 깊은 맛을 자랑한다.,C:/Users/KDT02/Desktop/new_team_project_1/image/restaurant_data_image/순이네곱창.png
r156,동래구,세연정,충렬대로 149,35.20514,129.07704,051-506-6666,"소갈비로 유명한 구이전문 패밀리레스토랑으로 청결한 공간과 높은 수준의 서비스를 자랑하는 이곳은, 직거래하는 향토 식자재와 직접 만든 된장, 유명한 산지에서 공수한 재료들을 사용하여 정성들인 음식을 제공하고 있다.",C:/Users/KDT02/Desktop/new_team_project_1/image/restaurant_data_image/세연정.png
r157,동래구,조방낙지마당,사직북로47번길 14-4,35.19913,129.05907,051-505-0708,"조방낙지라는 이름의 식당들은 대부분 보증된 맛을 가지고 있는데, 이곳 역시 보증된 낙지전문점이다. 이 지역에서 오랜 시간을 보내온 식당답게 단골손님도 많고, 다른 낙지전문점에 비해 낮은 가격이 마음을 든든하게 한다.",C:/Users/KDT02/Desktop/new_team_project_1/image/restaurant_data_image/조방낙지마당.png
r158,동래구,초록담미역국,"동래구 사직로 73, 2층",35.194927,129.05788,051-505-5255,"미역국에 사용되는 한우는 비계와 힘줄을 직접 제거하고, 직접 만든 반찬과 양념, 그리고 매일 새로 담근 김치를 준비한다. 이곳은 집밥같은 음식을 준비하는 미역국전문점으로 자극적이지 않은 맛으로 유명하다.",C:/Users/KDT02/Desktop/new_team_project_1/image/restaurant_data_image/초록담미역국.png
r159,동래구,타이빈,동래구 금강로73번길 12,35.216263,129.0773,051-558-8885,"태국 정부로부터 Thai select 최고등급인 signature 인증을 받았다는 태국음식전문점으로, 태국인요리사가 준비하는 정통태국음식이 준비되어 있다. 태국으로 여행 온 기분을 느끼게 해주는 인테리어가 무척 인상적인 곳이다.",C:/Users/KDT02/Desktop/new_team_project_1/image/restaurant_data_image/타이빈.png
r160,부산진구,경찰서 옆 초밥집,부전로 111번길 15,35.159702,129.05392,051-818-3189,18년 경력의 오너 쉐프가 모든 재료를 직접 만들고 손질한다. 매일 5시간씩 정성껏 준비한 재료와 알찬 구성 그리고 보증된 솜씨로 만들어 내는 초밥은 당신을 실망시키지 않는다.,C:/Users/KDT02/Desktop/new_team_project_1/image/restaurant_data_image/경찰서 옆 초밥집.png
r161,부산진구,동백아가씨1961,서전로37번길 18,35.158566,129.064,070-7612-1961,"빈티지한 인테리어의 카페 같은 이곳은 놀랍게도 유명한 즉석떡볶이 전문점이다. 유명산지의 고춧가루를 사용하는 등 좋은 재료를 사용하고, 라면부터 돈까스까지 다양한 토핑을 추가할 수 있는 매력적인 곳이다.",C:/Users/KDT02/Desktop/new_team_project_1/image/restaurant_data_image/동백아가씨1961.png
r162,부산진구,로위버거,"서전로10번길 31-4, 1층",35.156338,129.06004,070-4467-4090,100% 통새우로 만든 패티와 수제 와사비 소스로 맛을 낸 통새우버거가 인기메뉴인 이곳은 오리지널 레시피 개발과 독특한 분위기로 인기 높은 수제버거전문점이다. 매일 100개 한정 판매라고 하니 서두르는 것을 추천한다.,C:/Users/KDT02/Desktop/new_team_project_1/image/restaurant_data_image/로위버거.png
r163,부산진구,장어촌,부산진구 부전로96번길 36,35.15863,129.05667,051-803-9617,"부산에서 장어구이를 이야기할 때 항상 최고로 거론되는 곳 중 한 곳으로 ,주문즉시 장만한 장어와 6시간을 끓여 만든 특제한방소스를 경험해 본다면누구나 그 사실을 인정할 수밖에 없을 것 같다.",C:/Users/KDT02/Desktop/new_team_project_1/image/restaurant_data_image/장어촌.png
r164,부산진구,전통음식점 원양,동평로 420번길 23,35.172222,129.06995,010-4545-0773,"좋은 재료로 직접담은 김치와 밑반찬, 시골집에서 공수한 장류 및 장아찌들을 사용하여 30년이 넘게 꾸준히 직장인들의 사랑을 받아온 곳으로, 미식가들 사이에서 특히 평이 좋은 곳이라 한다. 연회를 위한 단체석도 마련되어 있다.",C:/Users/KDT02/Desktop/new_team_project_1/image/restaurant_data_image/전통음식점 원양.png
r165,부산진구,항정살구공탄,동평로 75,35.165436,129.03777,051-891-6339,주문과 함께 썰어내는 고기는 포를 뜨는 방식으로 썰어 더 좋은 식감을 자랑한다. 된장찌개로도 유명한 이곳은 오직 항정살만 전문적으로 취급하고 있는 구이전문점으로 운이 좋다면 유쾌한 이벤트도 경험할 수 있다.,C:/Users/KDT02/Desktop/new_team_project_1/image/restaurant_data_image/항정살구공탄.png
r166,북구,금용,구포만세길 75,35.205463,128.99666,051-332-1261,"1960년부터 운영해온 중국만두전문점으로 찐돼지껍질과 사태, 소꼬리 살로 소를 만드는 산둥식 만두를 만들고 있다. 준비해둔 재료가 언제나 당일 소진이 될 정도로 인기가 높다.",C:/Users/KDT02/Desktop/new_team_project_1/image/restaurant_data_image/금용.png
r167,북구,웅천집,금곡대로616번길 7-14,35.26257,129.0153,051-332-8740,"1964년부터 3대째 운영하고 있는 전통 있는 식당으로, 3년 숙성 초장으로 만든 특제소스와 먹는 향어회가 특히 유명하지만, 고민 끝에 결국 장어구이와 매운탕까지 모든 메뉴를 먹게 된다는 무서운 곳이기도 하다.",C:/Users/KDT02/Desktop/new_team_project_1/image/restaurant_data_image/웅천집.png
r168,북구,이종임 전복뚝배기,화명대로 12번길 91,35.230835,129.00897,051-365-0022,"전복요리를 전문으로 하는 이 곳은 신선하고 부드러운 완도산 활전복을 사용하고, 새로운 음식인 전복한우갈비찜을 개발하여 방송에 소개되기도 했다. 전체적으로 염도가 낮은 건강한 음식을 만든다.",C:/Users/KDT02/Desktop/new_team_project_1/image/restaurant_data_image/이종임 전복뚝배기.png
r169,북구,평양집,금곡대로 20번길 21,35.212116,129.00589,051-331-5455,"24년째 운영 중인 평양식 수제만두집으로 흔치 않은 이북식 음식을 만날 수 있는 곳이다. 새벽마다 직접 만든 만두로 손님을 맞이하고 있으며, 100% 녹두를 이용해 만든 녹두전도 인기메뉴다.",C:/Users/KDT02/Desktop/new_team_project_1/image/restaurant_data_image/평양집.png
r170,사상구,대왕불맛,"덕상로 54, 1층",35.17614,128.99005,051-303-5755,"이곳은 테이크아웃과 배달을 전문으로 하는 내장요리전문점으로, 국내산 곱창·막창을 직화구이로 조리하여 제공한다. 수제양념으로 곱창 특유의 잡냄새를 제거한 매운 곱창메뉴가 인기 있다고 한다.",C:/Users/KDT02/Desktop/new_team_project_1/image/restaurant_data_image/대왕불맛.png
r171,사상구,올리브장작,광장로 101,35.162926,128.98746,051-312-3399,통나무 산장에 들어온 듯한 인테리어가 편안한 분위기를 만들고 있는 이곳은 화덕피자와 파스타로 유명한 이탈리안 레스토랑이다. 변하지 않는 꾸준한 맛으로 단골이 많은곳이다.,C:/Users/KDT02/Desktop/new_team_project_1/image/restaurant_data_image/올리브장작.png
r172,사상구,전골[그집],"가야대로 268-15, 1층",35.149475,129.00208,051-323-7988,1년이 넘는 시간을 연구하여 만든 레시피로 만든 전골은 다소 찾기 힘든 골목 안쪽의 가게를 사람들로 북적이게 만들었다. 누구나 좋아할 것 같은 국물요리다.,C:/Users/KDT02/Desktop/new_team_project_1/image/restaurant_data_image/전골[그집].png
r173,사상구,하오츠,"학감대로270, 1층 104호",35.155018,128.99106,0507-1435-8890,"근처에 관공서가 많아 점심이면 직장인들이 몰려드는 중식당으로 오너쉐프가 직접 선별한 좋은 재료를 사용한다고 한다. 중식당 치고는 조리시간이 조금 긴 편이나, 그만큼의 맛이 보장되어 있다.",C:/Users/KDT02/Desktop/new_team_project_1/image/restaurant_data_image/하오츠.png
r174,사상구,함양본가어탕국수,사상로181번길36,35.159695,128.98518,051-312-4321,민물생선을 갈아서 만든 어탕국수는 생각보다 찾기 어려운 음식이다. 그래서인지 먼 거리에서 찾아오는 손님도 제법 많다는 이곳의 어탕국수는 많이 맵거나 자극적이지 않고 변함없는 맛으로 유명하다.,C:/Users/KDT02/Desktop/new_team_project_1/image/restaurant_data_image/함양본가어탕국수.png
r175,사하구,오공떵번,"승학로 50, 1층",35.105663,128.9738,051-292-4441,"한국에서 흔하게 맛볼 수 있는 쌀국수는 ‘포’라는 하노이식 쌀국수라면, 이곳은 ‘후띠우’라는 호치민식 쌀국수를 만들고 있다. ‘포’와는 달리 향이 강하지 않아 누구나 쉽게 즐길 수 있는 맛이다.",C:/Users/KDT02/Desktop/new_team_project_1/image/restaurant_data_image/오공떵번.png
r176,사하구,옥미아구찜 하단점,승학로2번길 34,35.105244,128.9706,0507-1362-9939,"아구찜전문점이 많은 부산에서도 가장 유명한 식당 중 한 곳인 옥미아구찜의 분점으로, 생아귀를 사용하여 맵지 않고 풍부한 맛의 아구찜을 만들고 있다. 부산향토음식점으로 지정되어 있는 곳이기도 하다.",C:/Users/KDT02/Desktop/new_team_project_1/image/restaurant_data_image/옥미아구찜 하단점.png
r177,사하구,우연횟집,"낙동대로535번길18, 1층",35.11137,128.96355,0507-1461-0813,"오픈 전 웨이팅으로 유명한 횟집으로, 주문 즉시 잡은 활어를 사용한다. 두툼한 회를 접시가 넘치도록 담아서 주는데 가격마저 저렴한 편이라, 대학가 상권인 이 지역에서 가장 인기 있는 주점 중 한 곳이라고 한다.",C:/Users/KDT02/Desktop/new_team_project_1/image/restaurant_data_image/우연횟집.png
r178,금정구,마파람 해물찜 해물탕 구서본점,금정구 금강로 418 2층,35.244667,129.08856,051-557-5577,깔끔한 외관과 인테리어를 가진 큰 규모의 매장은 언제나 손님들로 가득 차 있다 .2005년에 개업하여 꽤 오랜 시간 사랑받아 온 해산물요리전문점으로 싱싱한 해산물과 누구나 좋아할 것 같은 맛의 양념으로 인기 높은 곳이다.,C:/Users/KDT02/Desktop/new_team_project_1/image/restaurant_data_image/마파람 해물찜 해물탕 구서본점.png
r179,영도구,청해수산,영도구 태종로 113번길 35,35.092476,129.0438,051-412-6888,두껍게 썬 회로 유명한 이 곳은 평범한 시장횟집처럼 보이지만평일에도 이른 시간부터 늦은 시간까지 웨이팅이 이어지는 인기 있는 횟집이다.회의 두께는 조절이 가능하고 포장을 위해 찾는 손님들도 많다,C:/Users/KDT02/Desktop/new_team_project_1/image/restaurant_data_image/청해수산.png
r180,남구,궁중해물탕 조씨집,남구 진남로 7-11,35.13556,129.09119,051-627-4749,"1959년에 개업하여 2대에 걸쳐 운영해오고 있는 유명한 해물탕전문점으로,생선내장과 해물이 듬뿍 들어간 백년해물탕이 이곳의 대표 메뉴이다.오랜 전통에만 기대지 않고 독자적인 메뉴를 개발하여 좋은 반응을 얻고 있는 곳이기도 하다.",C:/Users/KDT02/Desktop/new_team_project_1/image/restaurant_data_image/궁중해물탕 조씨집.png
r181,수영구,까치횟집,수영구 광안해변로344번길 17-20 풍경타워,35.155018,129.13171,0507-1400-5663,광안리에는 멋진 바다풍경을 배경으로 식사 할 수 있는 좋은 횟집들이 많은데이곳이 바로 그런 곳이다.직접 준비하는 백김치가 회랑 잘 어울리고 간장게장과 새우장이 깔끔하고 맛있다,C:/Users/KDT02/Desktop/new_team_project_1/image/restaurant_data_image/까치횟집.png
r182,기장군,미청식당,기장군 일광읍 기장해안로 1303,35.260254,129.2332,051-721-7050,일광해수욕장 해변에 자리한 이곳은 성게의 한 종류인 앙장구(말똥성게)비빔밥을 전문으로 하는 해산물식당으로 한정적인 메뉴를 취급하고 있는 것이 더 신뢰가 간다. 웨이팅이 상당한 곳이다.,C:/Users/KDT02/Desktop/new_team_project_1/image/restaurant_data_image/미청식당.png
r183,영도구,피아크 카페 앤 베이커리,영도구 해양로 195번길 180 4층,35.08665,129.077,051-404-9204,"하버뷰를 자랑하는 거대한 베이커리카페로 주말이면 유원지라도 온 듯 많은 인파가 몰리지만 ,워낙 넓은 공간을 가지고 있어 웨이팅은 생각보다 짧다.약 80여 종의 다양한 베이커리와 음료, 아이스크림이 준비되어 있고 볼거리가 많은 곳이다",C:/Users/KDT02/Desktop/new_team_project_1/image/restaurant_data_image/피아크 카페 앤 베이커리.png
r184,금정구,큐제,금정구 금샘로 470-1 1층,35.26486,129.08542,0507-1392-8489,"프랑스인 파티셰가 운영하는 작은 베이커리 카페로, 최상급 밀과 버터를 사용하여천연발효종과 저온숙성을 통해 빵을 구워낸다. 프랑스의 대표 빵인 바게트와 크로아상을 비롯해20여 가지의 빵들을 만날 수 있다.",C:/Users/KDT02/Desktop/new_team_project_1/image/restaurant_data_image/큐제.png
r185,부산진구,커피스가모 인 서면,부산진구 가야대로 755번길 23 1층,35.15878,129.05403,051-818-1007,아주 드물게 전통적인 핸드드립과 사이폰을 이용해 커피를 내리는 이곳은 시간은 조금 더 걸리지만색다른 커피를 즐길 수 있는 곳이다. 고급스러운 실내와 테이블 착석 후 주문하고 후불 결제하는고풍스러운 운영을 고수하는 것도 인상적이다,C:/Users/KDT02/Desktop/new_team_project_1/image/restaurant_data_image/커피스가모 인 서면.png
r186,기장군,칠암사계,기장군 일광읍 칠암1길 7-10,35.299957,129.25919,0507-1318-4900,"넓은 매장이 좁게 느껴질 정도로 많은 인파가 몰리는 이곳은기장의 바다를 바라보면서 다양한 빵과 음료를 즐길 수 있는 유명한 카페다 .모든 곳이 예쁘고, 모든 빵이 맛있는 곳으로, 소금빵과 칠암돌만주가 특히 유명하다.",C:/Users/KDT02/Desktop/new_team_project_1/image/restaurant_data_image/칠암사계.png
r187,동구,초량온당,"동구 초량중로 135, 1층",35.123413,129.04155,0507-1318-1271,오픈시간이면 원하는 빵을 사기위해 긴 줄이 생기는 유명 베이커리로빵의 도시 부산에서도 보기 힘든 색다른 조합과 레시피의 다양한 빵들을 만날 수 있다 .특히 황 치즈를 사용한 빵들이 제일 인기 있다고 한다.,C:/Users/KDT02/Desktop/new_team_project_1/image/restaurant_data_image/초량온당.png
r188,중구,원조 바다집,중구 광복로 43번길 18-5,35.100822,129.0299,051-245-1924,대를 이어 50여 년을 운영 중인 유명한 식당으로 다수의 TV프로그램을 통해서도많이 알려져 있다. 손질된 해산물이 가득 들어간 수중전골이 이곳을 유명하게 만든 메뉴이며지역민들의 추억이 담긴 음식이기도 하다,C:/Users/KDT02/Desktop/new_team_project_1/image/restaurant_data_image/원조 바다집.png
r189,금정구,이흥용과자점 부산대점,금정구 부산대학로 63번길 30,35.23029,129.08397,051-711-4454,"너무나도 유명한 대한민국 제과명장의 베이커리로 4년간 간수 뺀 신안천일염,제철 우리 농산물 등 좋은 재료를 사용한 100여종의 빵과 디저트를 매일 직접 구워 제공하고 있다",C:/Users/KDT02/Desktop/new_team_project_1/image/restaurant_data_image/이흥용과자점 부산대점.png
r190,동래구,소문난 원조 조방낙지,동래구 명륜로 94번길 37,35.203987,129.08392,051-555-7763,1972년부터 3대째 운영하고 있는 낙지볶음전문점으로부산에서는 모르는 사람이 드문 식당 중 한 곳이기도 하다.직접 뼈를 우려낸 육수와 비법 양념장으로 항상 많은 손님들이 찾는 곳이다.,C:/Users/KDT02/Desktop/new_team_project_1/image/restaurant_data_image/소문난 원조 조방낙지.png
r191,사상구,오대양횟집,사상구 주례로 12,35.150047,129.01125,051-327-9463,"평범한 횟집처럼 보이는 이곳은 회와 함께, 돼지·소고기 구이를 함께 하는 대단히 특이한 식당이다.횟집에서 고기 먹는 사람이 있을까 싶은데 대부분 고기부터 시작해서 회로 마무리한다고 한다.배달로도 인기 높은 곳이다.",C:/Users/KDT02/Desktop/new_team_project_1/image/restaurant_data_image/오대양횟집.png
r192,동구,오륙도 낙지 범일본점,동구 정공단로 46-1,35.136383,129.05554,051-638-1589,"1996년부터 30여 년을 운영 중인 곳으로 각종 TV프로그램을 통해서도 많이 소개된 곳으로,유명세에 유사상호를 사용하는 곳들도 생겨 특허·상표등록을 했다고 한다.동구의 1호 향토음식점이기도 하다.",C:/Users/KDT02/Desktop/new_team_project_1/image/restaurant_data_image/오륙도 낙지 범일본점.png
r193,기장군,일미아구찜,기장군 일광읍 학리등대로 102,35.25894,129.24767,051-724-3318,일광에 위치한 아귀찜전문점인 이곳은 어디서 구해오나 궁금할 정도로커다란 아귀를 사용하여 아귀찜을 만든다.정말 많은 사람들이 찾는 유명한 가게로 매운 정도를 선택할 수 있다,C:/Users/KDT02/Desktop/new_team_project_1/image/restaurant_data_image/일미아구찜.png
r194,영도구,제주복국,영도구 절영로 481,35.07098,129.06885,051-405-5050,뚝배기로 나오는 대부분의 복국집과 다르게 인원수만큼 끓인 복국을 그 자리에서그릇에 담아준다. 부산에서 최고의 복국집을 거론할 때 항상 빠지지 않는 곳 중 한 곳으로클래식한 분위기의 넓은 공간이 인상적인 곳이다.,C:/Users/KDT02/Desktop/new_team_project_1/image/restaurant_data_image/제주복국.png
r195,강서구,1966정원,강서구 가덕해안로 787-1,35.028156,128.81578,051-971-9925,"조용한 어촌마을에 자리한 양식당으로 아담한 정원과 엔틱풍의 인테리어가 돋보인다.직접 구운 번으로 만든 수제버거가 대표메뉴이며 필라프, 샐러드 외에다양한 음료도 준비되어 있는 곳",C:/Users/KDT02/Desktop/new_team_project_1/image/restaurant_data_image/1966정원.png
r196,남구,용호할매팥빙수단팥죽,남구 용호로 90번길 24,35.124126,129.11104,051-623-9946,"오래전부터 팥빙수와 단팥죽으로 유명했던 팥전문점으로 2대에 걸쳐 40여 년이 넘게운영 중인 곳이다. 직접 삶은 통팥과 밀양얼음골사과, 부산우유를 사용하는 등지역의 재료를 사용한 변함없는 맛을 지켜가고 있다",C:/Users/KDT02/Desktop/new_team_project_1/image/restaurant_data_image/용호할매팥빙수단팥죽.png
r197,해운대구,올드머그,"해운대구 송정구덕포길 122, 1층",35.17039,129.19714,051-704-9004,뒤로는 해변열차가 지나가고 산책길과 이어져 있는 핸드드립 전문 카페로이른 아침부터 일출과 티타임을 즐기러 온 손님들이 많다.실내와 실외 모두 감성적인 공간으로 색다른 송정바다를 만날 수 있는 곳이다,C:/Users/KDT02/Desktop/new_team_project_1/image/restaurant_data_image/올드머그.png
r198,기장군,아데초이,기장군 일광읍 문오성길 162-1,35.286453,129.25821,070-8804-1355,"강렬한 색감의 고풍스러운 실내가 창밖으로 보이는 바다와 무척 잘 어울리는 카페로 ,고급스러운 맛으로 유명한 이 곳의 디저트들은 동경제과학교 출신의 오너가 직접 만들고 있다 .클래식과 재즈 음악이 조금 나이가 있는 손님들과 참 잘 어울린다",C:/Users/KDT02/Desktop/new_team_project_1/image/restaurant_data_image/아데초이.png
r199,동래구,빌라 빌레쿨라,동래구 여고로 63번 나길 8,35.198376,129.06964,0507-1379-0100,"말괄량이 삐삐가 살던 오두막의 이름을 가진 이곳은 도심 속에서 만나는 휴식의 공간이다 .직접 만든 팬케이크 등의 디저트와 음료는 좋은 재료를 사용하였고,구석구석 따뜻한 분위기를 가진 나만 알고 싶은 그런 카페다.",C:/Users/KDT02/Desktop/new_team_project_1/image/restaurant_data_image/빌라 빌레쿨라.png
r200,강서구,브리타니,강서구 가덕해안로 663,35.037563,128.81287,0507-1368-4172,조용한 해안마을에 자리한 감성적인 분위기의 카페로 커다란 창밖으로가덕도 해안이 한눈에 보이는 바다경치를 자랑한다.루프 탑도 운영 중이며 간단한 식사메뉴도 함께 즐길 수 있는 곳,C:/Users/KDT02/Desktop/new_team_project_1/image/restaurant_data_image/브리타니.png
r201,기장군,브레이크인 커피,기장군 정관읍 병산로 117,35.340794,129.17773,051-728-7081,"일상에서 벗어나 파노라마 숲속에서 커피 한 잔의 여유를 즐길 수 있는 곳으로 ,카페라고는 하지만 22년 경력 제과기능장의 빵을 맛볼 수 있는 베이커리이기도 하다 .재미있는 모양의 수박식빵과 호랑이식빵이 인기있다",C:/Users/KDT02/Desktop/new_team_project_1/image/restaurant_data_image/브레이크인 커피.png
r202,남구,브레드 365,남구 못골로 41번길 13 상가 205동 101호,35.135845,129.08633,051-711-1951,천연 발효종과 저온발효로 빵 자체의 풍미가 좋고 소화가 잘되는 빵을 만든다 .빵은 손으로 만질 수 없게 쇼케이스 안에 진열되어 있으며 매일 직접 만드는바게트 샌드위치가 특히 인기 있다.,C:/Users/KDT02/Desktop/new_team_project_1/image/restaurant_data_image/브레드 365.png
r203,금정구,보리종파티세리 본점,금정구 중앙대로 1667 1층,35.233204,129.09138,051-513-5200,"맛있고도 건강한 빵을 연구하는 이곳은버터향 가득한 소금빵이 바삭하고 쫄깃한 식감으로 인기 있으며,대표메뉴인 천연발효종 유럽빵과 통밀 건강빵이 다양한 종류로 준비되어 있다",C:/Users/KDT02/Desktop/new_team_project_1/image/restaurant_data_image/보리종파티세리 본점.png
r204,중구,바우노바,중구 광복로 97번길 6,35.099163,129.03558,051-253-3757,"다양한 원두를 사용하며 하루에도 3~4번씩 원두를 바꾼다는 이곳에선워터소믈리에, SCA 커피 감별사 자격을 보유한 바리스타가 나에게 맞는 커피를 찾아준다 .외국인을 포함한 단골손님이 많은 카페다.",C:/Users/KDT02/Desktop/new_team_project_1/image/restaurant_data_image/바우노바.png
r205,해운대구,해운대 암소갈비집,해운대구 중동2로10번길 32-10,35.163273,129.16663,051-746-3333,"1964년 창업하여 2대째 운영 중인 암소갈비전문점으로, 한옥형태의 건물과 독특한 양념으로방문해보지 않은 사람들도 이름정도는 알고 있는 유명한 식당이다",C:/Users/KDT02/Desktop/new_team_project_1/image/restaurant_data_image/해운대 암소갈비집.png
r206,해운대구,풍원장 고기정찬,해운대구 달맞이길117번가길 175,35.15967,129.18253,0507-1378-9024,"주방에서 고기를 구워 나와 연기 없이 쾌적한 환경에서 식사를 할 수 있는 이곳은 ,대형 구이전문식당으로, 잘 갖춰진 시설과 한정식처럼 푸짐하게 차려지는 상차림 등가족외식하기 좋은 곳이다.",C:/Users/KDT02/Desktop/new_team_project_1/image/restaurant_data_image/풍원장 고기정찬.png
r207,금정구,포맨티코,금정구 장전로 12번길 16,35.22843,129.08781,051-583-2682,"제대로 된 맛이 날 수 있게 사골 뼈를 24시간 이상 끓이고, 매일 아침 정성껏 재료를 준비한다. 정성들여 준비해야 좋은 맛이 나는 것은 어느 나라 음식이건 마찬가지다. 그간 베트남음식에 좋은 기억이 없던 사람들에게 먼저 추천해주고 싶은 곳.",C:/Users/KDT02/Desktop/new_team_project_1/image/restaurant_data_image/포맨티코.png
r208,동구,명란브랜드연구소,동구 영초윗길 22-1,35.1171,129.03499,051-463-9182,동구 초량이바구길에 위치한 이곳은 5층 건물 전체가 명란과 관련된 이야기로 가득한 곳이다.3층과 4층이 카페로 이용되는 곳으로 명란을 소재로 한 음식들을 만날 수 있다.주말에는 음료만 판매한다고 하니 참고하자,C:/Users/KDT02/Desktop/new_team_project_1/image/restaurant_data_image/명란브랜드연구소.png
r209,해운대구,육화목 소고기,해운대구 좌동순환로8번길 78,35.16929,129.17072,051-743-5747,10년 이상 경력의 주인이 주문과 동시에 고기를 준비하여 제공하는 곳으로한우와 한돈을 모두 주문할 수 있다.조금 특별하게 고기를 즐기고 싶은 날 추천할 만한 숯불구이전문점이다.,C:/Users/KDT02/Desktop/new_team_project_1/image/restaurant_data_image/육화목 소고기.png
r210,해운대구,어밤부,해운대구 송정광어골로 87,35.17372,129.19667,051-702-8183,"태국풍의 라탄 조명과 송정 해수욕장의 멋진 풍경이 어우러진 태국음식전문점으로, 다양한 태국 음식들과 함께 와인 등의 주류와 다양한 음료도 준비되어 있다.",C:/Users/KDT02/Desktop/new_team_project_1/image/restaurant_data_image/어밤부.png
r211,수영구,우토피아,수영구 광안해변로 249 3층,35.15517,129.12115,0507-1388-3199,광안리 바다 뷰와 함께 2++등급 한우를 사용한 오마카세 구이를 즐길 수 있는 곳으로준비되어 나오는 모습도 먹는 방식도 대단히 독특한 한우구이전문점이다.연인과 함께 하는 것을 추천하고 싶은 식당이다.,C:/Users/KDT02/Desktop/new_team_project_1/image/restaurant_data_image/우토피아.png
r212,해운대구,우봉,해운대구 마린시티1로 155 상가 2층,35.157097,129.14835,051-746-9256,"동백섬이 보이는 시원한 뷰와 함께 하는 한우구이전문점으로 경매, 도축, 숙성 등의 전 과정을전문가가 관리하여 만족할만한 품질의 소고기만 제공한다고 한다.깔끔하고 독특한 모습의 샤브전골도 무척 인기있다.",C:/Users/KDT02/Desktop/new_team_project_1/image/restaurant_data_image/우봉.png
r213,부산진구,굿모닝홍콩,부산진구 서전로 47번길 19,35.158752,129.06444,010-6444-3724,"홍콩인들이 아침식사를 한다는 차찬텡 컨셉의 식당으로, 식사와 디저트가 함께 준비되어 있는 곳이다.한국인의 입맛에 맞춘 적당한 향신료로 부담 없이 먹을 수 있는 것이 특징이다.",C:/Users/KDT02/Desktop/new_team_project_1/image/restaurant_data_image/굿모닝홍콩.png
r214,해운대구,버거인뉴욕,해운대구 해운대해변로298번길 9,35.16093,129.16469,051-743-0144,엄선된 1등급 한우로 만든 패티와 버터향 가득한 브리오슈 번을 매일 만들어뉴욕 본토의 맛에 가장 가까운 햄버거를 만들고 있다.가게의 외관도 내부도 마치 뉴욕에 온 듯한 느낌을 주는 곳이다.,C:/Users/KDT02/Desktop/new_team_project_1/image/restaurant_data_image/버거인뉴욕.png
r215,부산진구,반핀,부산진구 동천로 108번길 9,35.15839,129.06279,051-911-6222,대만음식을 베이스로한 캐주얼한 메뉴로 젊은 층에 인기 높은 이 곳은비장탄 숯불을 사용한 덮밥이 인기메뉴이다.간단한 요리메뉴도 있어 식사나 맥주와도 잘 어울린다.,C:/Users/KDT02/Desktop/new_team_project_1/image/restaurant_data_image/반핀.png
r216,사하구,복성반점,사하구 하신중앙로 289,35.103638,128.96245,051-291-7834,"50여 년간 2대를 이어 운영하고 있는 전통 있는 중식당으로, 유명 TV쇼에 출연하며 더욱 많은 사람들이 찾고 있다.해산물과 양파가 푸짐하게 올라간 짬뽕이 이곳의 대표메뉴",C:/Users/KDT02/Desktop/new_team_project_1/image/restaurant_data_image/복성반점.png
r217,해운대구,쉐프리,해운대구 해운대해변로209번길 13 바게트호텔 3층,35.159615,129.15382,051-757-6127,화려한 경력의 오너쉐프가 운영하는 이탈리안 레스토랑으로 와인과도 잘 어울리는요리들을 만날 수 있다.예쁜 모습의 음식들이 많이 유행하고 있지만 역시 음식의 본질은 맛이다.,C:/Users/KDT02/Desktop/new_team_project_1/image/restaurant_data_image/쉐프리.png
r218,해운대구,부우사안,해운대구 해운대해변로209번나길 16,35.160133,129.1545,051-741-3310,베이징덕으로 유명한 정통중식당으로 조금 특별한 날에 특별한 메뉴를 찾는 사람에게 권할만한 곳이다.카빙 전 베이징덕을 먼저 보여주고 먹을 수 있게 장만해 주는 것이 재미있다.,C:/Users/KDT02/Desktop/new_team_project_1/image/restaurant_data_image/부우사안.png
r219,중구,스톤스트릿,중구 광복중앙로 24번길 9,35.102036,129.03119,051-254-7736,캐주얼한 화덕피자와 파스타가 인기 높은 곳으로 음식에 사용되는 리코타 치즈는매일 직접 만든다고 한다. 시그니처 메뉴는 난과 함께 제공되는 청포도 샐러드인데이곳의 단골들이 강력하게 추천하는 메뉴이다.,C:/Users/KDT02/Desktop/new_team_project_1/image/restaurant_data_image/스톤스트릿.png
r220,동구,산동완탕교자관,동구 중앙대로248번길 3-11 (1층),35.119602,129.04268,070-8240-2385,중국인이 운영하고 있는 이곳은 중국에 있는 식당이 그대로 위치만 옮긴 것 같은 느낌을 준다.만두를 전문으로 하고 낯선 메뉴와 현지화 되지 않은 중국 본토의 맛을 경험할 수 있는 특별한 식당이다.,C:/Users/KDT02/Desktop/new_team_project_1/image/restaurant_data_image/산동완탕교자관.png
r221,영도구,삼형제오리,영도구 태종로 73번길 23,35.09349,129.03928,051-417-7043,"중국 현지 북경오리 프랜차이즈의 국내 유일 지점으로 숯불에 구운 오리바베큐가 대표메뉴지만, 양갈비살로 만든 양꼬치도 인기 있다.오리바베큐를 먹기 위해선 예약이 필수다.",C:/Users/KDT02/Desktop/new_team_project_1/image/restaurant_data_image/삼형제오리.png
r222,중구,석기시대,중구 동광길 75-1,35.106155,129.03487,010-2334-0358,1987년에 개업한 중국만두전문점으로 맛과 품질에 비해 저렴한 가격의 만두와 오향장육을 만날 수 있다. 가볍게 술 마시기 좋은 곳으로 많은 단골손님이 찾아오는 가게이다.,C:/Users/KDT02/Desktop/new_team_project_1/image/restaurant_data_image/석기시대.png
r223,부산진구,음주양식당 오스테리아 어부,부산진구 동천로58,35.153934,129.06258,051-802-8858,한국인에게는 다소 생소한 맛일지라도 이탈리아의 맛을 좋아하는 사람들을 위해이탈리아 현지의 맛을 기준으로 조리한다는 이곳.이곳은 부산이지만 이 공간만큼은 분명히 이탈리아다.,C:/Users/KDT02/Desktop/new_team_project_1/image/restaurant_data_image/음주양식당 오스테리아 어부.png
r224,강서구,칸웨이,강서구 명지오션시티4로 84,35.08141,128.90326,051-271-7173,"롯데호텔 중식당과 한식당의 책임자로 각종 국제행사를 책임지던 대표가 선보이는 고급 중식레스토랑이다. 가족외식하기 좋으며, 중식코스 요리가 대표메뉴이다.",C:/Users/KDT02/Desktop/new_team_project_1/image/restaurant_data_image/칸웨이.png
r225,수영구,고옥,수영구 광남로 6 남천동 12-8번지,35.143585,129.10974,0507-1360-1638,"부산에서 히츠마부시를 유행시킨 유명한 곳으로, 장어는 숯불을 사용하며 굽고그날 사용할 장어가 떨어지면 조기 마감한다. 예약을 받지 않고 입점순서대로 식사를 제공한다.",C:/Users/KDT02/Desktop/new_team_project_1/image/restaurant_data_image/고옥.png
r226,연제구,글라스 앤 보틀,연제구 쌍미천로 179-1,35.188755,129.0872,051-852-8598,"일본의 골목길 비스트로를 연상시키는 분위기의 아담한 와인바로 부부가 함께 운영하고 있는 곳으로, 일식 기반의 캐주얼한 요리들이 와인과 무척 잘 어울린다. 테이블 수가 작아 예약이 필수다.",C:/Users/KDT02/Desktop/new_team_project_1/image/restaurant_data_image/글라스 앤 보틀.png
r227,강서구,앙탄,강서구 식만로 118-1,35.204876,128.90659,0507-1487-3122,"낙동강 강변에 위치한 조용하고 여유로운 식당으로, 멋진 풍경을 감상할 수 있는오리코스요리 전문점이다.깔끔하고 기분 좋은 코스와 시그니처 디저트 곶감말이까지 여러모로 기분 좋은 곳이다",C:/Users/KDT02/Desktop/new_team_project_1/image/restaurant_data_image/앙탄.png
r228,남구,교토돈부리본점,남구 용소로13번길 61,35.137672,129.10362,051-622-1919,"제주산 흑돼지로 만든 돈카츠와 생연어를 숙성시킨 연어뱃살덮밥으로 인기 있는 일식덮밥전문점으로, 무척 높은 수준의 음식을 만날 수 있다.재료손질과 사용하는 소스 등도 모두 직접 장만하고 있다.",C:/Users/KDT02/Desktop/new_team_project_1/image/restaurant_data_image/교토돈부리본점.png
r229,해운대구,나가하마 만게츠,해운대구 우동1로 57 대영빌딩1층,35.16669,129.15746,051-731-0886,해리단길의 유명한 일본라멘전문점으로 후쿠오카의 유명한 라멘전문점의 유일한 한국분점이다. 최근에는 해운대로 관광 온 젊은 층의 필수코스가 되어가고 있어 오픈과 동시에 웨이팅이 시작되는 곳이기도 하다.,C:/Users/KDT02/Desktop/new_team_project_1/image/restaurant_data_image/나가하마 만게츠.png
r230,수영구,노는바다,수영구 황령대로 481번길 39 1층,35.140026,129.10835,051-992-3838,해삼내장을 손질한 고노와다로 유명한 일본식주점으로 이곳의 고노와다 사시미를경험해보기 위해 먼 곳에서도 찾아오는 사람도 많다고 한다.대기하는 사람이 많아 두 시간 이용 제한이 있다.,C:/Users/KDT02/Desktop/new_team_project_1/image/restaurant_data_image/노는바다.png
r231,수영구,동경밥상,수영구 남천바다로 34-6,35.148396,129.11385,0507-1320-1428,"240여 년의 긴 역사를 가진 일본의 장어요리전문점 쥬바코에서 오랜 수련을 거친오너쉐프가 쥬바코 스타일의 정통방식으로 만든 장어구이를 선보이는 곳으로,외관부터 내부까지 일본에 온 듯한 분위기를 가지고 있다",C:/Users/KDT02/Desktop/new_team_project_1/image/restaurant_data_image/동경밥상.png
r232,기장군,슌,기장군 기장읍 차성동로 163,35.25241,129.217,051-724-3737,무려 25년 경력의 셰프가 갓 만든 초밥이 레일위에 놓여있는 회전초밥전문점인 이곳은 좌천 쌀을 사용하며 초밥의 가격은 모두 동일하다.먹고 싶은걸 말하면 그 즉시 만들어주기도 한다.,C:/Users/KDT02/Desktop/new_team_project_1/image/restaurant_data_image/슌.png
r233,해운대구,스시미르네,해운대구 세실로 75,35.17129,129.17677,051-703-5623,초밥의 대중화를 이끈 초밥전문점 중 한 곳인 이곳은 초심을 잃지 않고 음식을 만든다는 철학으로 한국인기브랜드 대상을 수상한 곳이기도 하다.색다른 모습을 가진 통우나동과 물회가 특징적인 메뉴이다.,C:/Users/KDT02/Desktop/new_team_project_1/image/restaurant_data_image/스시미르네.png
r234,금정구,스시심 타카이,금정구 부산대학로 29 네오스퀘어 2층,35.230793,129.08801,010-2847-3576,"점심, 저녁 각각 두 차례씩 예약제로 운영하는 초밥전문점으로 숙련된 셰프가 제공하는오마카세는 맛과 가격 모두를 만족시킨다고 한다.예약에만 3개월이 걸릴 정도로 높은 인기를 자랑하는 곳.",C:/Users/KDT02/Desktop/new_team_project_1/image/restaurant_data_image/스시심 타카이.png
r235,부산진구,야스마루,"부산진구 서전로 38번길 35-14, 제일빌딩 102호",35.15605,129.06439,010-7144-7600,입맛 없는 여름에 맛있게 먹을 수 있는 음식을 만들려고 했다지만 계절에 관계없이 항상 긴 줄이 서있는 곳으로 독특한 모습의 파랑국수가 대표메뉴.간판 없는 인기식당으로도 유명하다.,C:/Users/KDT02/Desktop/new_team_project_1/image/restaurant_data_image/야스마루.png
r236,중구,중앙모밀,중구 중앙대로 49번길 9-1,35.101845,129.0353,051-246-8686,1956년에 개업하여 60여 년의 역사를 가진 우동·메밀국수전문점으로 부산의 기성세대들에게는 특별한 날 부모님과 함께 왔던 어린 시절의 추억이 있는 곳이다.3대가 함께 식사하는 모습을 자주 볼 수 있는 곳이기도 하다.,C:/Users/KDT02/Desktop/new_team_project_1/image/restaurant_data_image/중앙모밀.png
r237,수영구,킹콩스시,수영구 구락로 8-4,35.1689,129.11972,051-751-5036,가격대비 만족도가 무척 높다는 초밥전문점으로 합리적인 가격으로 신선하고 좋은 구성의 초밥을 제공하고 있다.포장이나 배달주문이 많은 곳이기도 하다.,C:/Users/KDT02/Desktop/new_team_project_1/image/restaurant_data_image/킹콩스시.png
r238,해운대구,타이가 텐푸라,해운대구 우동1로 38번가길 15,35.164764,129.1584,051-731-1914,"부산에 텐동유행을 불러온 가게 중 하나로, 후쿠오카의 유명 텐동전문점인 텐푸라타카오에서 직접 전수 받은 레시피와 소스로 완성도 높은 텐동을 선보인다.주문과 동시에 조리가 시작된다.",C:/Users/KDT02/Desktop/new_team_project_1/image/restaurant_data_image/타이가 텐푸라.png
r239,금정구,톤쇼우 부산대점,금정구 금강로 247-10,35.230446,129.08427,010-5685-5482,"유명한 돈카츠전문점 톤쇼우의 본점으로, 좋은 재료를 선별해 저온, 고온, 레스팅, 숯불구이의 네 단계의 조리를 거쳐 만들어진 돈카츠는 놀라운 맛을 선사한다.",C:/Users/KDT02/Desktop/new_team_project_1/image/restaurant_data_image/톤쇼우 부산대점.png
r240,부산진구,삼성밀면,부산진구 월드컵대로449번길 47,35.181423,129.05115,051-806-1256,60여 년째 밀면의 맛을 이어가고 있는 밀면전문점인 이곳은 유일하게 1세대 영업주가 운영하는 식당으로 부연 설명이 필요없는 식당이다.,C:/Users/KDT02/Desktop/new_team_project_1/image/restaurant_data_image/삼성밀면.png
r241,남구,부산약콩밀면,남구 동명로145번길 80 1층,35.123108,129.11333,051-611-1231,"밀면에 맛과 건강을 더하기 위해, 40년간 쌓인 노하우를 바탕으로 약콩과 함초, 톳으로 만든 천연간수와 기장 다시마로 직접 만든 식초를 사용하여깊은 맛을 가진 특색 있는 밀면을 개발해 낸 밀면전문점.",C:/Users/KDT02/Desktop/new_team_project_1/image/restaurant_data_image/부산약콩밀면.png
r242,금정구,면채움,금정구 금정로231번길 11,35.24463,129.0901,051-513-4443,"건강한 밀면의 맛을 위해 오곡을 제분하여 직접 면을 뽑고 48시간 우려낸 육수와 과일, 채소로 맛을 낸 천연 양념장을 사용하는 밀면전문점으로,추억의 음식인 비빔만두도 인기 있는 곳이다.",C:/Users/KDT02/Desktop/new_team_project_1/image/restaurant_data_image/면채움.png
r243,남구,대연밀면,남구 천제등로 55(1층),35.13132,129.08981,051-623-6120,"2011년부터 영업 중인 밀면 전문점으로 이 지역에서 꾸준히 사랑받아 온 식당이다.기본에 충실한 전통적인 밀면의 맛을 가지고 있으며, 이곳 역시 웨이팅을 감수하고 찾아야 하는 곳이기도 하다.",C:/Users/KDT02/Desktop/new_team_project_1/image/restaurant_data_image/대연밀면.png
r244,남구,합천국밥집,남구 용호로 235,35.111244,129.11125,051-628-4898,"부산의 돼지국밥을 이야기할 때 빠지지 않는 곳 중 한 곳으로 다른 유명 돼지국밥집과는 다르게 맑고 깔끔한 국물이 특징이다.국산 돼지고기만 사용하는데, 큼직한 고기가 아낌없이 들어가 있다.",C:/Users/KDT02/Desktop/new_team_project_1/image/restaurant_data_image/합천국밥집.png
r245,사하구,정짓간,사하구 비봉로 6 1층,35.095695,128.96248,051-293-2900,"부엌의 경상도 방언을 상호로 쓰는 이곳은 가마솥에서 48시간 끓여 돼지국밥을 만든다.수육백반의 고기는 삼겹살과 항정살 중 선택할 수 있고, 국밥 역시 고기와 온도, 맵기 등 취향대로 선택할 수 있는 것이 장점이다.",C:/Users/KDT02/Desktop/new_team_project_1/image/restaurant_data_image/정짓간.png
r246,동구,우리돼지국밥,동구 초량로 27-1,35.11995,129.03925,051-468-5623,"1975년부터 3대째 운영하고 있는 이곳은, 24시간 국물을 계속 끓이며 전통적인 토렴방식을 유지하고 있는 곳이다. 돼지 한 마리를 통째로 사용하기 때문에 원하는 부위를 주문하면 즉시 조리해 준다고 한다.",C:/Users/KDT02/Desktop/new_team_project_1/image/restaurant_data_image/우리돼지국밥.png
r247,사하구,영진식당,사하구 하신번영로157번길 39,35.096634,128.95787,051-206-3820,"부산의 향토음식인 돼지국밥을 대표하는 식당 중 한 곳으로, 항상 많은 사람들이 찾아오는 곳이다. 돼지 특유의 냄새를 제거하여 깔끔하고 담백한 맛을 자랑하며 수육과 두부, 볶음김치가 함께 나오는 수육백반이 무척 인기 있다.",C:/Users/KDT02/Desktop/new_team_project_1/image/restaurant_data_image/영진식당.png
r248,연제구,수복돼지국밥,연제구 고분로 41-1 2층,35.1859,129.0869,051-866-3349,"국내산 돼지고기와 내장, 직접 만든 순대를 사용하고, 김치와 깍두기 역시 직접 담는다. 이른 시간부터 누구에게 대접해도 손색없이 음식준비에 정성을 들이고 있으며,넓은 주차장과 청결한 매장을 갖추고 있다.",C:/Users/KDT02/Desktop/new_team_project_1/image/restaurant_data_image/수복돼지국밥.png
r249,중구,부광돼지국밥,중구 대청로 141번길 15-1,35.104244,129.03506,051-466-1708,"3대에 걸쳐 40여 년을 영업 중인 이곳은 전통적인 방식으로 돼지국밥을 만들고 있는 곳이다.김치와 깍두기는 직접 담그며, 오래도록 인기 있는 가게답게 신선하고 좋은 재료를 고집한다고 한다.",C:/Users/KDT02/Desktop/new_team_project_1/image/restaurant_data_image/부광돼지국밥.png
r250,사하구,수향밥상,사하구 다대로 592,35.053585,128.97047,051-266-4726,가족단위 손님이 많이 찾는다는 추어요리전문점으로 진한 국물의 추어탕이 대표메뉴.직영 양어장을 운영하는 등 건강하고 좋은 재료를 사용하기 위해 많은 노력을 기울이고 있는 곳이다.,C:/Users/KDT02/Desktop/new_team_project_1/image/restaurant_data_image/수향밥상.png
r251,사상구,해물왕창칼국수,사상구 사상로 316,35.1727,128.98376,0507-1357-2579,"칼국수의 맛을 내는 조개류는 전라도 고흥에서 매일 공수해오고 있으며, 해물탕에 넣어먹는 자가제면 칼국수는 매일 직접 반죽하여 숙성 시킨다.신선한 재료와 정성이 듬뿍 들어간 칼국수는 오늘도 인기 있다.",C:/Users/KDT02/Desktop/new_team_project_1/image/restaurant_data_image/해물왕창칼국수.png
r252,수영구,할매재첩국,수영구 광남로120번길 8,35.151875,129.11638,0507-1400-7658,"1950년 구포에서 재첩국 판매를 시작하여 지금의 자리로 온 것은 20여년이 되었다고 하는재첩국전문점으로, 이른 시간부터 운영하고 있어 아침을 먹으러 오는 손님들도 많다.서울에 직영점을 운영하고 있기도 하다.",C:/Users/KDT02/Desktop/new_team_project_1/image/restaurant_data_image/할매재첩국.png
r253,동래구,동래할매파전,동래구 명륜로 94번길 43-10,35.204575,129.08385,051-552-0792,4대를 이어오고 있는 유명한 식당으로 부산의 대표적 향토음식인 동래파전의 전통을이어가고 있는 곳. 사진으로는 담을 수 없는 식재료의 푸짐함을 느낄수 있다.,C:/Users/KDT02/Desktop/new_team_project_1/image/restaurant_data_image/동래할매파전.png
r254,동래구,박해윤 통영 해물밥상,동래구 연안로 38,35.191082,129.10825,051-525-0120,"통영에서 수급한 신선한 해산물을 사용하는 한정식전문점으로,정갈한 음식과 넓은 주차장, 잘 꾸며진 쾌적한 실내를 갖추고 있어돌잔치, 상견례 등의 행사로도 많이 찾는 곳이다",C:/Users/KDT02/Desktop/new_team_project_1/image/restaurant_data_image/박해윤 통영 해물밥상.png
r255,동래구,원조꼬리곰집,동래구 온천장로 52,35.216038,129.08095,051-552-1106,"1980년에 개업하여 오랜 시간 사랑받고 있는 곳으로,껍데기를 보존하여 요리하는 특별한 방식으로 더 부드러운 육질을 자랑한다.기본에 충실하게 많은 양의 고기를 오랜 시간 삶는 것이 비법이라고 한다",C:/Users/KDT02/Desktop/new_team_project_1/image/restaurant_data_image/원조꼬리곰집.png
r256,사상구,삼락하동재첩국,사상구 낙동대로1518번길 33,35.19344,128.98584,051-301-7200,"재첩국 전문 식당이 모여 있는 이 지역에서도 인기 있는 재첩국 전문점으로,섬진강의 국산 재첩만을 사용하여, 소금물에 담가 해감을 하고, 수 차례 깨끗이 씻은 다음 끓인 국물은 간과 위의 건강에 도움이 된다고 한다.이곳은 재첩을 회와 찜으로 새롭게 연구하여 재첩 요리를 정착시킨 곳이기도 하다.",C:/Users/KDT02/Desktop/new_team_project_1/image/restaurant_data_image/삼락하동재첩국.png
r257,사하구,하기연진주냉면,사하구 괴정로 32,35.102787,128.9677,051-207-6555,"멸치, 바지락, 다시마가 들어간 해물육수를 사용하고 고명으로 육전이 올라가는 진주냉면은 보기 힘든 음식 중 하나로 그만큼 전수받은 사람이 드물다고 한다.이곳은 제주도산 흑메밀만 사용하여 면을 만드는 것이 특징.",C:/Users/KDT02/Desktop/new_team_project_1/image/restaurant_data_image/하기연진주냉면.png
r258,중구,장안집,기장군 장안읍 장안로 365,35.369785,129.24432,051-727-1819,"바로 옆에는 계곡이 있고 인근에는 유명사찰인 장안사가 있는 한옥형태의 넓은 식당.넓은 주차장과 개별 룸들이 있어 가족, 단체로 식사하러 가기 좋은 곳이다.오리백숙으로 유명한 곳이기도 하다.",C:/Users/KDT02/Desktop/new_team_project_1/image/restaurant_data_image/장안집.png
r259,사상구,이가네 칼국수,사상구 광장로 27,35.163177,128.97974,051-322-8131,"사상시외버스터미널 인근은 맛있는 식당들이 모여 있기로 유명한데, 이곳 역시 그 유명한 식당 중 한 곳이다. 해물이 가득한 칼국수와 100% 수제로 만드는 만두, 그리고 밀면까지무엇을 주문하더라도 만족스러운 식사가 될 것이다.",C:/Users/KDT02/Desktop/new_team_project_1/image/restaurant_data_image/이가네 칼국수.png
r260,중구,이가네 떡볶이,중구 부평1길 48,35.10156,129.02602,051-245-0413,유명 TV쇼에 출연하여 더욱 명성이 높아진 곳으로 전국적으로 많이 알려져 있어부산 원도심관광의 필수코스 중 하나로 꼽히는 가게이기도 하다.언제나 사람들로 북적이는 인기 가게이다.,C:/Users/KDT02/Desktop/new_team_project_1/image/restaurant_data_image/이가네 떡볶이.png
r261,수영구,우성삼계탕,수영구 광서로10번길 68,35.16719,129.11409,051-751-2984,"40여 년을 삼계탕만 만들어 온 전통 있는 삼계탕전문점으로, 마늘 향이 진하게 느껴지는 국물이특징이다. 오랜 시간 단일메뉴로 운영된 곳답게 항상 많은 손님들로 북적이고 있으며,기본으로 제공되는 똥집튀김이 아주 인기 있다.",C:/Users/KDT02/Desktop/new_team_project_1/image/restaurant_data_image/우성삼계탕.png
r262,동래구,몽뜰,동래구 중앙대로 1381번길 33,35.210857,129.07614,051-556-5999,한우구이 전문식당으로 육회비빔밥과 차돌 된장찌개를 찾는 고객이 많은 곳이다.육회비빔밥 양념장은 고추장이 아니라 직접 만든 비법양념장으로 더 깔끔한 맛이 특징이며차돌 된장찌개가 맛있기로도 유명하다.,C:/Users/KDT02/Desktop/new_team_project_1/image/restaurant_data_image/몽뜰.png
r263,동래구,조광심민속왕순대,동래구 반송로 223,35.20074,129.09787,051-527-3927,"선지와 막창으로 만든 피순대는 냉동을 할 수 없어 즉석에서 수작업으로 만들고,모든 메뉴는 국산 재료를 사용한다.월요일 휴무에는 자비로 무료 급식을 운영하는 이곳은 유난히 단골들이 많은 따뜻한 식당이다.",C:/Users/KDT02/Desktop/new_team_project_1/image/restaurant_data_image/조광심민속왕순대.png
r264,중구,할매집회국수,중구 남포길 25-3,35.09885,129.03146,051-246-4741,"70여 년을 운영하고 있는 유명한 식당으로, 부산의 원도심을 대표하는 식당 중 한 곳이다.특유의 매운맛과 가오리회가 고명인 회국수가 대표메뉴로이곳의 맛을 잊지 못해 타지역에서도 꾸준히 찾아오는 사람들이 많다고 한다.",C:/Users/KDT02/Desktop/new_team_project_1/image/restaurant_data_image/할매집회국수.png
r265,중구,가미가식당,중구 광복로67번길 11,35.099144,129.03244,051-246-7999,"2008년 개업하여 꾸준히 단골손님을 늘려가고 있는 생선전문식당으로,국산 재료만 사용하여 만드는 생선요리와 푸짐한 반찬들은 집밥처럼 깔끔하다.낮 시간은 항상 손님들이 가득하니 전화 예약을 추천한다",C:/Users/KDT02/Desktop/new_team_project_1/image/restaurant_data_image/가미가식당.png
r266,부산진구,나탄약선요리,부산진구 성지곡로 51번길 4,35.18711,129.04843,051-504-7733,한국전통요리를 기반으로 일체의 화학조미료를 배제하여 재료 본연의 맛을 살리고첨가되는 약재로 식사 내내 배려받는 느낌을 주는 기분좋은 곳이다.,C:/Users/KDT02/Desktop/new_team_project_1/image/restaurant_data_image/나탄약선요리.png
r267,해운대구,부다면옥,해운대구 중동1로 36 2층,35.162384,129.16298,051-746-8872,"평양냉면을 전문으로 하는 이곳은, 깔끔하고 시원한 목 넘김을 위해 한우 사태 및 여러 야채들을 주재료로 하여, 모든 육수 통을 따로 끓이고 식히는 전통 방식으로 육수를 만든다. 사진으로는 표현되지 않는 깊은 맛을 가진 곳이다.",C:/Users/KDT02/Desktop/new_team_project_1/image/restaurant_data_image/부다면옥.png
r268,동래구,본 고갈비,동래구 충렬대로 272번길 2,35.20054,129.08878,051-553-5892,500도 화덕에서 구운 고등어화덕구이가 이곳의 대표메뉴로 바삭하게 잘 굽혀진 고등어는 촉촉한 식감을 자랑한다.함께 제공되는 반찬은 가짓수도 많고 셀프코너에서 리필할 수 있어 인기 높은 식당이다.,C:/Users/KDT02/Desktop/new_team_project_1/image/restaurant_data_image/본 고갈비.png
r269,동구,88돼지갈비,동구 고관로 101-1,35.128063,129.04562,051-468-3065,"숙련된 솜씨로 구워주는 고기의 맛을 표현할 만한 방법이 떠오르지 않는다.입구부터 투박하고 오래된 흔적을 풍기는 이곳은, 40여 년을 운영해온 양념구이전문점으로이른바 현지인의 단골가게이다.",C:/Users/KDT02/Desktop/new_team_project_1/image/restaurant_data_image/88돼지갈비.png
r270,중구,돌솥밥집,중구 광복로 37번길 7-1,35.099976,129.02908,051-246-3888,뜨거운 돌솥에 나온 밥을 나물이 들어있는 비빔그릇에 담아 비빔밥을 만들어 먹기도 하고함께 나온 된장찌개나 순두부찌개와 먹기도 한다.40여 년을 운영하고 있는 이곳은 많은 설명을 필요로 하지 않는 식당 중 한 곳이다.,C:/Users/KDT02/Desktop/new_team_project_1/image/restaurant_data_image/돌솥밥집.png
r271,사상구,맹여사육전육회,사상구 광장로81번길 79 2층,35.165836,128.9835,0507-1372-5203,그냥 먹어도 맛있는 육전과 육회는 다양한 방법으로 먹을 수 있어 질리지가 않는다.육전이 식지 않게 조금씩 구워서 제공하는 세심함은 왜 이곳이 많은 사람들에게 사랑받는지 알 수 있게 되는 부분이다.,C:/Users/KDT02/Desktop/new_team_project_1/image/restaurant_data_image/맹여사육전육회.png
